{"type":"FeatureCollection","features":[{"type":"Feature","geometry":{"type":"MultiPolygon","coordinates":[[[[11.517269,59.814551],[11.518006,59.815389],[11.519375,59.816419],[11.519828,59.817137],[11.521007,59.817637],[11.521065,59.8173],[11.521095,59.817163],[11.521182,59.816767],[11.521213,59.816638],[11.521242,59.816512],[11.52127,59.816373],[11.521294,59.816253],[11.521309,59.81619],[11.521011,59.815996],[11.52066,59.815639],[11.520468,59.815444],[11.520165,59.814701],[11.518355,59.813368],[11.518374,59.81335],[11.518626,59.813197],[11.518709,59.813151],[11.51871,59.81315],[11.518711,59.81315],[11.518713,59.813149],[11.518714,59.813149],[11.518716,59.813148],[11.518718,59.813148],[11.518737,59.813146],[11.5188,59.813144],[11.518844,59.813146],[11.518913,59.813157],[11.519013,59.813181],[11.519116,59.813212],[11.519213,59.813252],[11.51933,59.81331],[11.519444,59.813373],[11.519514,59.813405],[11.519616,59.813436],[11.519713,59.813463],[11.519782,59.813489],[11.519802,59.813503],[11.51982,59.813514],[11.519841,59.813525],[11.519863,59.813536],[11.519887,59.813545],[11.519913,59.813552],[11.519939,59.813559],[11.519967,59.813565],[11.519996,59.813569],[11.520025,59.813572],[11.520055,59.813574],[11.520085,59.813574],[11.520115,59.813573],[11.520145,59.81357],[11.520328,59.813552],[11.520387,59.813551],[11.520419,59.813555],[11.520455,59.813562],[11.520504,59.813584],[11.520594,59.813653],[11.520721,59.81375],[11.520762,59.813779],[11.520808,59.813805],[11.520858,59.81383],[11.520913,59.813852],[11.520971,59.813871],[11.521033,59.813888],[11.521097,59.813902],[11.521163,59.813913],[11.521231,59.813921],[11.521301,59.813926],[11.52137,59.813928],[11.52144,59.813926],[11.52151,59.813922],[11.521669,59.813908],[11.521905,59.813885],[11.522125,59.813867],[11.522135,59.813867],[11.522146,59.813867],[11.522156,59.813868],[11.522167,59.813869],[11.522177,59.81387],[11.52214,59.814469],[11.522137,59.814485],[11.522136,59.814488],[11.522129,59.814526],[11.522107,59.814624],[11.522091,59.814699],[11.522084,59.814726],[11.522125,59.814727],[11.522547,59.812951],[11.522465,59.81295],[11.522463,59.812968],[11.522459,59.813017],[11.522454,59.81306],[11.522447,59.813106],[11.522433,59.813174],[11.522414,59.813262],[11.522411,59.813276],[11.522196,59.813789],[11.52188,59.813814],[11.521643,59.813837],[11.521485,59.813851],[11.521428,59.813855],[11.521371,59.813856],[11.521314,59.813854],[11.521258,59.81385],[11.521202,59.813844],[11.521148,59.813835],[11.521095,59.813823],[11.521045,59.81381],[11.520997,59.813794],[11.520952,59.813776],[11.520911,59.813756],[11.520874,59.813734],[11.52084,59.813711],[11.520713,59.813614],[11.520613,59.813536],[11.520531,59.8135],[11.520461,59.813486],[11.520401,59.81348],[11.520314,59.81348],[11.520116,59.8135],[11.520099,59.813501],[11.520082,59.813502],[11.520064,59.813502],[11.520047,59.813501],[11.52003,59.813499],[11.520014,59.813497],[11.519997,59.813494],[11.519982,59.81349],[11.519967,59.813485],[11.519953,59.81348],[11.51994,59.813474],[11.519928,59.813468],[11.519918,59.813461],[11.519885,59.813438],[11.51979,59.813403],[11.519721,59.813383],[11.519687,59.813374],[11.519599,59.813347],[11.519544,59.813322],[11.519433,59.813261],[11.519308,59.813198],[11.519198,59.813153],[11.51908,59.813117],[11.518965,59.81309],[11.518873,59.813075],[11.518803,59.813071],[11.518715,59.813074],[11.518683,59.813078],[11.518671,59.81308],[11.518659,59.813082],[11.518647,59.813085],[11.518636,59.813089],[11.518625,59.813092],[11.518615,59.813096],[11.518606,59.813101],[11.518606,59.813101],[11.518172,59.81336],[11.518168,59.813363],[11.517597,59.813713],[11.517233,59.81396],[11.517091,59.814006],[11.517269,59.814551]]]]},"properties":{"uid":"AK_AH_001","pid":"P_AK_AH_001_01","n":"Helgerud Inert Deponi","src":"reguleringsplan (RpOmrade)","a":53091,"firm":0,"pcls":"plan","note":"legal plan envelope - routinely larger than the worked ground"}},{"type":"Feature","geometry":{"type":"MultiPolygon","coordinates":[[[[11.518808,59.812988],[11.519151,59.812813],[11.519518,59.812444],[11.519925,59.812468],[11.520356,59.812104],[11.520693,59.811845],[11.521473,59.812046],[11.521755,59.812023],[11.522006,59.811983],[11.522307,59.811936],[11.522335,59.811931],[11.522355,59.812037],[11.522358,59.812094],[11.522365,59.812235],[11.522579,59.812218],[11.522614,59.812216],[11.522623,59.812215],[11.522619,59.812197],[11.522606,59.812128],[11.52258,59.811986],[11.522578,59.811973],[11.522544,59.811844],[11.522504,59.811688],[11.522492,59.811644],[11.522266,59.811667],[11.522283,59.811726],[11.522307,59.811803],[11.522278,59.811805],[11.521485,59.81187],[11.520922,59.811644],[11.520305,59.811046],[11.520162,59.810777],[11.519911,59.810235],[11.519137,59.810345],[11.51831,59.810463],[11.51824,59.810832],[11.518135,59.811237],[11.518117,59.811562],[11.518507,59.812671],[11.518642,59.81269],[11.518808,59.812988]]]]},"properties":{"uid":"AK_AH_002","pid":"P_AK_AH_002_01","n":"Mr. Pukk H\u00f8land AS","src":"reguleringsplan (RpOmrade)","a":32906,"firm":0,"pcls":"plan","note":"legal plan envelope - routinely larger than the worked ground"}},{"type":"Feature","geometry":{"type":"MultiPolygon","coordinates":[[[[10.526785,59.551728],[10.526992,59.551451],[10.526378,59.55076],[10.525451,59.550172],[10.524809,59.549921],[10.523447,59.549586],[10.521339,59.549446],[10.517492,59.550147],[10.516888,59.551018],[10.516216,59.551396],[10.516926,59.551589],[10.517027,59.55177],[10.516591,59.552152],[10.516105,59.552636],[10.516124,59.552638],[10.516144,59.55264],[10.516163,59.552642],[10.516182,59.552644],[10.516201,59.552647],[10.51622,59.55265],[10.516239,59.552653],[10.516257,59.552656],[10.516276,59.55266],[10.516294,59.552663],[10.516312,59.552667],[10.516331,59.552671],[10.516349,59.552675],[10.516366,59.552679],[10.516384,59.552684],[10.516401,59.552688],[10.516419,59.552693],[10.516436,59.552698],[10.516453,59.552703],[10.516469,59.552709],[10.516474,59.55271],[10.516486,59.552714],[10.516494,59.552717],[10.516502,59.55272],[10.516518,59.552726],[10.516524,59.552728],[10.51653,59.552726],[10.516532,59.552727],[10.516537,59.552729],[10.516539,59.55273],[10.516551,59.552734],[10.516565,59.55274],[10.516579,59.552745],[10.516593,59.55275],[10.516608,59.552756],[10.516622,59.552761],[10.516636,59.552767],[10.51665,59.552772],[10.516664,59.552777],[10.516679,59.552783],[10.516693,59.552788],[10.516707,59.552793],[10.516721,59.552799],[10.516735,59.552804],[10.51675,59.552809],[10.516757,59.552812],[10.516764,59.552815],[10.516769,59.552817],[10.516778,59.55282],[10.516792,59.552826],[10.516806,59.552831],[10.51682,59.552837],[10.516834,59.552842],[10.516848,59.552848],[10.516862,59.552853],[10.517159,59.552968],[10.517161,59.552969],[10.517163,59.55297],[10.517174,59.552973],[10.517181,59.552975],[10.517187,59.552976],[10.517194,59.552978],[10.5172,59.55298],[10.517207,59.552981],[10.517214,59.552983],[10.517221,59.552984],[10.517228,59.552986],[10.517234,59.552987],[10.517241,59.552988],[10.517248,59.552989],[10.517255,59.552991],[10.517262,59.552992],[10.517269,59.552993],[10.517276,59.552994],[10.517284,59.552995],[10.517291,59.552996],[10.517298,59.552997],[10.517305,59.552998],[10.517307,59.552998],[10.51731,59.552998],[10.517428,59.553015],[10.517459,59.553018],[10.517551,59.553023],[10.517615,59.553024],[10.518033,59.553024],[10.518034,59.553076],[10.518034,59.553101],[10.518034,59.553128],[10.51808,59.553286],[10.518294,59.553475],[10.518611,59.553783],[10.518871,59.55401],[10.518205,59.554153],[10.517696,59.554317],[10.516856,59.554731],[10.516643,59.55492],[10.516638,59.554918],[10.516396,59.555054],[10.516307,59.555104],[10.516218,59.555154],[10.516145,59.555194],[10.51611,59.555214],[10.516081,59.55523],[10.51559,59.55558],[10.515739,59.55564],[10.515919,59.555732],[10.516074,59.555835],[10.516091,59.555848],[10.516201,59.555947],[10.516298,59.556067],[10.516364,59.556192],[10.516449,59.556411],[10.51645,59.556412],[10.516552,59.556784],[10.516562,59.556853],[10.516573,59.557162],[10.516579,59.557305],[10.516633,59.557522],[10.516638,59.557534],[10.516755,59.557757],[10.516837,59.557868],[10.51736,59.558509],[10.517502,59.558702],[10.517549,59.558776],[10.517689,59.55905],[10.517735,59.559161],[10.517757,59.559172],[10.518213,59.559177],[10.518565,59.559136],[10.518851,59.55891],[10.519722,59.55822],[10.519749,59.558199],[10.519943,59.558045],[10.519995,59.558004],[10.520316,59.55775],[10.52111,59.557121],[10.521264,59.556999],[10.521284,59.556977],[10.521606,59.556619],[10.522016,59.556166],[10.522017,59.55612],[10.522006,59.556015],[10.521972,59.555787],[10.52189,59.555498],[10.521778,59.555287],[10.52162,59.554966],[10.521632,59.554961],[10.521648,59.554956],[10.521663,59.554952],[10.521679,59.554949],[10.521791,59.554931],[10.52223,59.554878],[10.522322,59.554871],[10.52239,59.554854],[10.522459,59.554834],[10.52253,59.554806],[10.522599,59.554773],[10.522644,59.554742],[10.522671,59.554711],[10.5227,59.554674],[10.522742,59.554613],[10.52293,59.554333],[10.523071,59.554137],[10.523104,59.554093],[10.526785,59.551728]],[[10.520597,59.553213],[10.520092,59.552924],[10.519806,59.552785],[10.519504,59.552609],[10.519325,59.552493],[10.519185,59.552402],[10.520597,59.553213]]]]},"properties":{"uid":"AK_AS_001","pid":"P_AK_AS_001_01","n":"Lindum Oredalen","src":"arealformal (permitted use)","a":366061,"firm":1,"pcls":"permitted","note":"the arealformal zone that licenses the activity"}},{"type":"Feature","geometry":{"type":"MultiPolygon","coordinates":[[[[10.514267,59.553098],[10.514234,59.553085],[10.51422,59.553084],[10.514206,59.553084],[10.514196,59.55308],[10.514185,59.553076],[10.514175,59.553072],[10.514165,59.553068],[10.514155,59.553064],[10.514145,59.553059],[10.514136,59.553055],[10.514126,59.553051],[10.514117,59.553046],[10.514108,59.553042],[10.514099,59.553037],[10.51409,59.553032],[10.514087,59.553029],[10.514085,59.553026],[10.514079,59.55302],[10.51408,59.553011],[10.51408,59.553001],[10.514093,59.552987],[10.514107,59.552969],[10.514104,59.552966],[10.514096,59.552962],[10.514089,59.552958],[10.514082,59.552954],[10.514075,59.552949],[10.514069,59.552945],[10.514062,59.552941],[10.514056,59.552936],[10.51405,59.552932],[10.514044,59.552927],[10.514038,59.552922],[10.514032,59.552917],[10.514026,59.552913],[10.514021,59.552908],[10.514016,59.552903],[10.51401,59.552898],[10.514005,59.552893],[10.514001,59.552888],[10.513996,59.552883],[10.513992,59.552878],[10.513987,59.552873],[10.513983,59.552868],[10.513979,59.552863],[10.513975,59.552857],[10.51397,59.552849],[10.513968,59.552846],[10.513965,59.552841],[10.513962,59.552836],[10.51396,59.55283],[10.513957,59.552825],[10.513955,59.552819],[10.513953,59.552814],[10.513951,59.552808],[10.513949,59.552803],[10.513947,59.552798],[10.513946,59.552792],[10.513945,59.552787],[10.513944,59.552781],[10.513943,59.552776],[10.513942,59.55277],[10.513942,59.552764],[10.513942,59.552759],[10.513941,59.552753],[10.513942,59.552748],[10.513942,59.552743],[10.513942,59.552738],[10.513942,59.552737],[10.513943,59.552729],[10.513943,59.552729],[10.513942,59.552719],[10.513943,59.55271],[10.513943,59.552701],[10.513943,59.552692],[10.513944,59.552683],[10.513945,59.552673],[10.513947,59.552664],[10.513949,59.552655],[10.51395,59.552646],[10.513952,59.552637],[10.513961,59.552628],[10.513962,59.552618],[10.513962,59.552609],[10.513962,59.5526],[10.51396,59.552591],[10.513949,59.552581],[10.513943,59.552571],[10.513941,59.552562],[10.513943,59.552557],[10.513944,59.552553],[10.513947,59.552544],[10.513949,59.552534],[10.513951,59.552525],[10.513954,59.552516],[10.513957,59.552507],[10.513958,59.552498],[10.513959,59.552488],[10.51396,59.552479],[10.513962,59.55247],[10.513963,59.552461],[10.513963,59.552451],[10.513962,59.552442],[10.513959,59.552432],[10.513951,59.552422],[10.513938,59.552412],[10.513938,59.552402],[10.513938,59.552393],[10.513941,59.552384],[10.513945,59.552374],[10.51395,59.552365],[10.513956,59.552356],[10.513963,59.552348],[10.513971,59.552339],[10.513981,59.55233],[10.513991,59.552322],[10.514001,59.552313],[10.514011,59.552305],[10.514031,59.552298],[10.514056,59.552291],[10.514064,59.552288],[10.514066,59.552283],[10.51407,59.552274],[10.514074,59.552265],[10.514079,59.552256],[10.514083,59.552247],[10.514087,59.552238],[10.514091,59.552229],[10.514095,59.55222],[10.5141,59.552211],[10.514104,59.552202],[10.514109,59.552193],[10.514114,59.552185],[10.514118,59.552176],[10.514123,59.552167],[10.514128,59.552158],[10.514131,59.552154],[10.514133,59.552149],[10.514138,59.55214],[10.514143,59.552131],[10.514148,59.552123],[10.514153,59.552114],[10.514159,59.552105],[10.514164,59.552096],[10.514169,59.552088],[10.514175,59.552079],[10.51418,59.55207],[10.514186,59.552061],[10.514192,59.552053],[10.514197,59.552044],[10.514203,59.552035],[10.514209,59.552027],[10.514215,59.552018],[10.514221,59.552009],[10.514227,59.552001],[10.514233,59.551992],[10.51424,59.551983],[10.514246,59.551975],[10.514252,59.551966],[10.514259,59.551957],[10.514265,59.551949],[10.514272,59.55194],[10.514278,59.551932],[10.514285,59.551923],[10.514292,59.551915],[10.514299,59.551906],[10.514306,59.551898],[10.514313,59.551889],[10.51432,59.551881],[10.514327,59.551872],[10.514334,59.551864],[10.514341,59.551856],[10.514349,59.551847],[10.514356,59.551839],[10.514363,59.55183],[10.51437,59.551822],[10.514377,59.551814],[10.514384,59.551806],[10.514391,59.551797],[10.514399,59.551789],[10.514406,59.551781],[10.514413,59.551772],[10.514421,59.551764],[10.514428,59.551755],[10.514436,59.551747],[10.514443,59.551739],[10.514451,59.55173],[10.514459,59.551722],[10.514467,59.551714],[10.514475,59.551705],[10.514482,59.551697],[10.514491,59.551689],[10.514499,59.551681],[10.514507,59.551672],[10.514511,59.551668],[10.514515,59.551664],[10.514519,59.55166],[10.514523,59.551656],[10.514525,59.551655],[10.514532,59.551648],[10.51454,59.55164],[10.514549,59.551632],[10.514557,59.551623],[10.514566,59.551615],[10.514575,59.551607],[10.514581,59.551601],[10.514583,59.551599],[10.514588,59.551595],[10.514592,59.551591],[10.514601,59.551583],[10.514608,59.551577],[10.51461,59.551575],[10.514617,59.551568],[10.514618,59.551568],[10.514621,59.551565],[10.514624,59.551562],[10.514627,59.551559],[10.51463,59.551556],[10.514632,59.551553],[10.514635,59.55155],[10.514637,59.551547],[10.51464,59.551544],[10.514642,59.551541],[10.514644,59.551538],[10.514646,59.551535],[10.514647,59.551531],[10.514649,59.551528],[10.51465,59.551525],[10.514652,59.551522],[10.514653,59.551519],[10.514654,59.551516],[10.514655,59.551513],[10.514655,59.551512],[10.514655,59.551512],[10.514655,59.551512],[10.514657,59.551508],[10.514657,59.551505],[10.514657,59.551505],[10.514658,59.551502],[10.514659,59.551499],[10.51466,59.551495],[10.51466,59.551492],[10.514661,59.551489],[10.514661,59.551487],[10.514661,59.551486],[10.514661,59.551483],[10.514661,59.551479],[10.514661,59.551476],[10.51466,59.551473],[10.51466,59.551472],[10.51466,59.551467],[10.514659,59.551463],[10.514658,59.55146],[10.514657,59.551457],[10.514657,59.551455],[10.514656,59.551454],[10.514655,59.551452],[10.514655,59.55145],[10.514654,59.551449],[10.514652,59.551446],[10.51465,59.551444],[10.514649,59.551441],[10.514647,59.551438],[10.514644,59.551436],[10.514642,59.551433],[10.514639,59.551431],[10.514637,59.551428],[10.514634,59.551426],[10.51463,59.551424],[10.514627,59.551422],[10.514624,59.551419],[10.51462,59.551417],[10.514617,59.551415],[10.514613,59.551413],[10.514609,59.551411],[10.514608,59.551411],[10.514598,59.551407],[10.514596,59.551406],[10.514592,59.551405],[10.514587,59.551403],[10.514583,59.551402],[10.514578,59.5514],[10.514575,59.551399],[10.514565,59.551403],[10.51452,59.551391],[10.514518,59.551391],[10.514517,59.551391],[10.514436,59.551451],[10.514425,59.551459],[10.514361,59.551507],[10.513871,59.551874],[10.513852,59.551888],[10.513596,59.55208],[10.513608,59.552067],[10.513725,59.551945],[10.513823,59.551851],[10.513922,59.551757],[10.513938,59.551743],[10.513951,59.551734],[10.513958,59.551728],[10.514072,59.551635],[10.514077,59.551631],[10.5141,59.551611],[10.514186,59.551538],[10.514194,59.551531],[10.514297,59.551437],[10.514344,59.551393],[10.514374,59.551364],[10.514447,59.551282],[10.514465,59.55126],[10.514482,59.55124],[10.514536,59.551176],[10.514561,59.551144],[10.514625,59.551061],[10.514658,59.551014],[10.51471,59.550942],[10.514717,59.55093],[10.514778,59.550837],[10.514779,59.550835],[10.514835,59.550736],[10.514885,59.550629],[10.514889,59.55062],[10.514934,59.55049],[10.514937,59.550482],[10.514976,59.550332],[10.515009,59.55019],[10.515011,59.550187],[10.515013,59.550179],[10.51518,59.550166],[10.515209,59.550164],[10.51535,59.550153],[10.515548,59.550138],[10.515826,59.550117],[10.516262,59.550083],[10.51733,59.550001],[10.517641,59.549977],[10.521307,59.549309],[10.521884,59.549339],[10.522811,59.549389],[10.523075,59.549403],[10.523525,59.549457],[10.5239,59.549529],[10.524107,59.549568],[10.524514,59.54967],[10.524828,59.549428],[10.525068,59.549306],[10.525364,59.54919],[10.525601,59.54912],[10.52586,59.549112],[10.526149,59.54914],[10.52631,59.549212],[10.526557,59.549384],[10.526887,59.549688],[10.526837,59.549705],[10.526631,59.549785],[10.526417,59.549873],[10.526239,59.549968],[10.52603,59.550064],[10.525811,59.550173],[10.525901,59.550224],[10.52591,59.550229],[10.526132,59.550379],[10.526353,59.550518],[10.526597,59.550685],[10.526899,59.550932],[10.527014,59.551071],[10.527185,59.551278],[10.527194,59.551289],[10.527316,59.551514],[10.527005,59.551804],[10.526644,59.552142],[10.525105,59.553582],[10.523452,59.555129],[10.522965,59.555583],[10.52228,59.556224],[10.522119,59.556375],[10.522079,59.556419],[10.522073,59.556426],[10.521983,59.556525],[10.52187,59.556651],[10.521848,59.556676],[10.521525,59.557033],[10.521497,59.557064],[10.521463,59.557091],[10.521418,59.557127],[10.52138,59.557156],[10.521333,59.557194],[10.520859,59.557569],[10.520539,59.557823],[10.520219,59.558076],[10.520167,59.558117],[10.520059,59.558203],[10.519972,59.558271],[10.519946,59.558292],[10.519074,59.558982],[10.518977,59.559059],[10.518963,59.55907],[10.518955,59.559076],[10.518906,59.559116],[10.518904,59.559117],[10.51873,59.559255],[10.518254,59.55931],[10.518241,59.559312],[10.517795,59.559307],[10.517686,59.559306],[10.517649,59.559305],[10.516699,59.558849],[10.516603,59.558803],[10.515923,59.558415],[10.515376,59.558115],[10.514442,59.557409],[10.513794,59.557136],[10.51332,59.556936],[10.51189,59.556592],[10.511383,59.556275],[10.511055,59.556024],[10.510663,59.555724],[10.510122,59.555641],[10.51013,59.555633],[10.510135,59.555626],[10.510142,59.555614],[10.510149,59.555602],[10.510154,59.555591],[10.510159,59.555579],[10.510165,59.555566],[10.51017,59.555553],[10.510174,59.555547],[10.510177,59.555536],[10.510185,59.555523],[10.510192,59.555509],[10.510195,59.555504],[10.5102,59.55549],[10.510205,59.555477],[10.510208,59.55547],[10.51021,59.555464],[10.510213,59.555452],[10.510217,59.555441],[10.510222,59.555428],[10.510229,59.555415],[10.510234,59.555403],[10.510236,59.555397],[10.510236,59.555391],[10.510239,59.55538],[10.510242,59.555369],[10.510246,59.555357],[10.510249,59.555346],[10.510254,59.555334],[10.510255,59.555326],[10.510257,59.555317],[10.51026,59.555307],[10.510263,59.555296],[10.51027,59.555289],[10.511112,59.555417],[10.511645,59.555826],[10.511954,59.556063],[10.512338,59.556302],[10.513704,59.556631],[10.514247,59.55686],[10.514972,59.557166],[10.515724,59.557734],[10.515513,59.557373],[10.515384,59.557151],[10.514275,59.555253],[10.514244,59.555219],[10.514168,59.555127],[10.514096,59.555007],[10.513995,59.554879],[10.513962,59.554829],[10.513945,59.554772],[10.51392,59.554683],[10.513908,59.554638],[10.513894,59.554533],[10.513886,59.554418],[10.513864,59.554272],[10.513843,59.55416],[10.513837,59.554044],[10.513829,59.55394],[10.513831,59.553884],[10.513837,59.553815],[10.513849,59.553777],[10.513878,59.553719],[10.513914,59.553666],[10.513948,59.553624],[10.513993,59.553566],[10.514034,59.553512],[10.514039,59.553503],[10.514043,59.553488],[10.514051,59.553452],[10.514062,59.553401],[10.514072,59.553356],[10.514095,59.553319],[10.514147,59.553243],[10.514192,59.553189],[10.514253,59.553125],[10.514257,59.55312],[10.514261,59.553115],[10.514263,59.553109],[10.514265,59.553104],[10.514267,59.553098]]]]},"properties":{"uid":"AK_AS_001","pid":"P_AK_AS_001_02","n":"Lindum Oredalen","src":"reguleringsplan (RpOmrade)","a":566888,"firm":0,"pcls":"plan","note":"legal plan envelope - routinely larger than the worked ground"}},{"type":"Feature","geometry":{"type":"MultiPolygon","coordinates":[[[[10.474394,59.700262],[10.474424,59.700258],[10.4745,59.700247],[10.474511,59.700246],[10.474557,59.700239],[10.474546,59.700219],[10.474515,59.700153],[10.474496,59.700086],[10.474488,59.700018],[10.474489,59.700008],[10.474491,59.699998],[10.4745,59.699973],[10.474569,59.699769],[10.474573,59.6997],[10.474575,59.699621],[10.474529,59.699501],[10.474526,59.699491],[10.474525,59.69948],[10.474531,59.699249],[10.474536,59.699249],[10.474639,59.699415],[10.474765,59.699543],[10.474814,59.699581],[10.474991,59.699716],[10.475269,59.698536],[10.475313,59.698347],[10.475214,59.698028],[10.475215,59.698027],[10.475272,59.697855],[10.475358,59.697386],[10.475418,59.697218],[10.475451,59.697127],[10.475525,59.69692],[10.47558,59.696386],[10.475595,59.696241],[10.475594,59.696007],[10.475594,59.695876],[10.475719,59.695414],[10.475783,59.695178],[10.475833,59.694381],[10.475853,59.69405],[10.475854,59.694039],[10.475765,59.694042],[10.474151,59.694095],[10.474149,59.694095],[10.47412,59.694096],[10.474117,59.694096],[10.474015,59.6941],[10.473424,59.694123],[10.473252,59.69413],[10.473107,59.694136],[10.472829,59.694148],[10.47273,59.694153],[10.472675,59.694155],[10.472462,59.694165],[10.472288,59.694172],[10.471188,59.694211],[10.471168,59.694295],[10.471084,59.694665],[10.470999,59.695036],[10.470941,59.695278],[10.470828,59.695751],[10.470627,59.696122],[10.470242,59.696831],[10.469925,59.697413],[10.469885,59.697488],[10.469216,59.698482],[10.469088,59.698673],[10.468987,59.698824],[10.469896,59.69939],[10.469125,59.700246],[10.469026,59.700359],[10.468865,59.700543],[10.468642,59.700797],[10.469485,59.702424],[10.469549,59.702548],[10.470139,59.70283],[10.470278,59.702904],[10.470358,59.702941],[10.471119,59.703291],[10.471408,59.703422],[10.471475,59.703384],[10.471476,59.703383],[10.471463,59.703379],[10.471335,59.703339],[10.47143,59.703285],[10.471551,59.703326],[10.471782,59.703132],[10.471891,59.702995],[10.471924,59.702969],[10.471961,59.702939],[10.472003,59.702946],[10.472128,59.702864],[10.472265,59.702788],[10.472276,59.702782],[10.472287,59.702776],[10.4723,59.702772],[10.472313,59.702767],[10.472326,59.702764],[10.472341,59.702761],[10.472356,59.702758],[10.472371,59.702757],[10.472386,59.702756],[10.472401,59.702755],[10.472417,59.702755],[10.472432,59.702756],[10.472448,59.702758],[10.472462,59.70276],[10.472477,59.702763],[10.472491,59.702767],[10.472504,59.702771],[10.472653,59.702799],[10.472719,59.702811],[10.47273,59.702814],[10.47277,59.702818],[10.472779,59.702819],[10.472799,59.702822],[10.473034,59.702794],[10.473269,59.702766],[10.473369,59.702751],[10.473438,59.702737],[10.473486,59.702717],[10.473535,59.702697],[10.47363,59.702701],[10.473677,59.702695],[10.473777,59.702674],[10.473923,59.702637],[10.474042,59.702601],[10.474048,59.702596],[10.474066,59.702579],[10.474069,59.702487],[10.474083,59.702088],[10.474237,59.702084],[10.474331,59.702082],[10.474348,59.702082],[10.474343,59.701952],[10.47435,59.701951],[10.474289,59.701803],[10.474289,59.701802],[10.474259,59.701804],[10.474244,59.701805],[10.473991,59.701827],[10.473962,59.701788],[10.473941,59.70174],[10.473937,59.701698],[10.474011,59.701627],[10.474118,59.701577],[10.474148,59.701532],[10.474152,59.701488],[10.474086,59.701435],[10.474168,59.701389],[10.474149,59.70134],[10.474201,59.701294],[10.474219,59.701249],[10.474244,59.701203],[10.474293,59.701123],[10.474308,59.701113],[10.474315,59.701103],[10.474384,59.700962],[10.474415,59.700901],[10.474387,59.700887],[10.474393,59.700867],[10.474462,59.700594],[10.474443,59.700543],[10.474423,59.700489],[10.474408,59.700447],[10.474386,59.700418],[10.474385,59.700387],[10.474342,59.700272],[10.474341,59.70027],[10.474389,59.700263],[10.474394,59.700262]]]]},"properties":{"uid":"AK_AS_004","pid":"P_AK_AS_004_01","n":"R\u00f8yken Grovfyllplass","src":"reguleringsplan (RpOmrade)","a":286507,"firm":0,"pcls":"plan","note":"legal plan envelope - routinely larger than the worked ground"}},{"type":"Feature","geometry":{"type":"MultiPolygon","coordinates":[[[[11.174954,60.256591],[11.174825,60.256461],[11.174861,60.256332],[11.174951,60.256212],[11.174929,60.256083],[11.174883,60.256037],[11.174618,60.255977],[11.174699,60.255776],[11.174963,60.255478],[11.175199,60.255258],[11.175144,60.255126],[11.175465,60.254787],[11.175474,60.25479],[11.175725,60.254671],[11.176358,60.25482],[11.176953,60.255045],[11.177233,60.255151],[11.177609,60.255092],[11.177718,60.254937],[11.177946,60.254613],[11.178008,60.254379],[11.178317,60.253994],[11.178556,60.253788],[11.178747,60.253623],[11.179306,60.253193],[11.179722,60.252635],[11.179784,60.252632],[11.179709,60.252148],[11.179488,60.251487],[11.179027,60.250915],[11.178131,60.250461],[11.177316,60.250525],[11.176825,60.250668],[11.176806,60.250667],[11.176206,60.250831],[11.175746,60.251073],[11.175411,60.251278],[11.174785,60.251434],[11.174423,60.251645],[11.174153,60.251873],[11.174107,60.252116],[11.173971,60.252465],[11.173818,60.252662],[11.173381,60.252817],[11.173155,60.25279],[11.173171,60.252747],[11.173213,60.252638],[11.173145,60.252407],[11.172999,60.252155],[11.172825,60.251915],[11.172796,60.251854],[11.172717,60.251684],[11.172428,60.251501],[11.172018,60.251422],[11.171711,60.251621],[11.171424,60.251849],[11.170912,60.251793],[11.1705,60.2517],[11.170254,60.251612],[11.169608,60.251701],[11.169085,60.252015],[11.168587,60.252235],[11.168519,60.252641],[11.168135,60.252845],[11.16794,60.252922],[11.167853,60.252957],[11.167659,60.253014],[11.167423,60.253068],[11.1672,60.253122],[11.166972,60.253139],[11.166782,60.253154],[11.166791,60.253298],[11.166778,60.25337],[11.166798,60.253684],[11.166803,60.254025],[11.166806,60.254348],[11.166935,60.254661],[11.167465,60.254742],[11.168149,60.254704],[11.168868,60.254647],[11.169512,60.254547],[11.170135,60.254402],[11.170221,60.254353],[11.170414,60.254244],[11.170506,60.254076],[11.170864,60.254013],[11.171048,60.253892],[11.171847,60.253949],[11.172084,60.253919],[11.172309,60.254127],[11.172698,60.254409],[11.172674,60.254614],[11.172661,60.254722],[11.172873,60.254964],[11.172766,60.255161],[11.17267,60.255308],[11.172486,60.255335],[11.172288,60.255247],[11.172214,60.255202],[11.172077,60.255182],[11.171941,60.255203],[11.171891,60.255272],[11.171857,60.25536],[11.171873,60.255404],[11.171982,60.255468],[11.172046,60.255506],[11.172143,60.255608],[11.172234,60.255662],[11.172398,60.255706],[11.172683,60.255741],[11.172753,60.255866],[11.172698,60.256006],[11.172706,60.256172],[11.172845,60.256331],[11.173064,60.256446],[11.173234,60.256494],[11.173674,60.256495],[11.174135,60.256482],[11.174373,60.25657],[11.174616,60.256641],[11.174863,60.256732],[11.175085,60.256799],[11.175305,60.256818],[11.17546,60.256783],[11.175411,60.25672],[11.175142,60.256665],[11.174954,60.256591]]]]},"properties":{"uid":"AK_EI_002","pid":"P_AK_EI_002_01","n":"Feiring Bruk AS avd. Dal Pukkverk","src":"observed footprint","a":249008,"firm":1,"pcls":"observed","note":"worked ground, traced"}},{"type":"Feature","geometry":{"type":"MultiPolygon","coordinates":[[[[11.167688,60.249721],[11.166619,60.250622],[11.166287,60.251296],[11.166348,60.252285],[11.166235,60.253008],[11.166225,60.253652],[11.166821,60.254552],[11.167028,60.255217],[11.167335,60.2558],[11.167637,60.256303],[11.168196,60.256615],[11.168708,60.257035],[11.168788,60.257408],[11.169407,60.257827],[11.169753,60.258168],[11.169997,60.258592],[11.170343,60.258935],[11.170915,60.259434],[11.17163,60.259664],[11.172996,60.259963],[11.174376,60.259645],[11.175514,60.258958],[11.176288,60.258464],[11.176696,60.258109],[11.17699,60.257677],[11.17712,60.257192],[11.177313,60.256841],[11.177191,60.256629],[11.177598,60.256274],[11.178224,60.25597],[11.178832,60.255372],[11.179205,60.254509],[11.179132,60.254217],[11.178947,60.253872],[11.179423,60.252927],[11.179585,60.252148],[11.179129,60.251781],[11.178504,60.251255],[11.178138,60.250619],[11.176365,60.249872],[11.173986,60.249724],[11.172953,60.24958],[11.171559,60.249657],[11.169933,60.249496],[11.167688,60.249721]]]]},"properties":{"uid":"AK_EI_002","pid":"P_AK_EI_002_02","n":"Feiring Bruk AS avd. Dal Pukkverk","src":"resource area (NGU) - NOT an operating footprint","a":635546,"firm":0,"pcls":"resource","note":"NGU geological resource area - not a footprint"}},{"type":"Feature","geometry":{"type":"MultiPolygon","coordinates":[[[[11.043228,60.022361],[11.043283,60.023239],[11.043572,60.024034],[11.043531,60.024673],[11.043813,60.025348],[11.043927,60.025906],[11.04421,60.026621],[11.044568,60.027254],[11.044917,60.027728],[11.045263,60.028162],[11.045928,60.028592],[11.046826,60.028897],[11.047232,60.029011],[11.048355,60.029198],[11.049469,60.029218],[11.051127,60.028891],[11.052638,60.028529],[11.052802,60.027942],[11.052735,60.027442],[11.052207,60.026573],[11.051423,60.02579],[11.050828,60.0252],[11.049986,60.024307],[11.049359,60.022737],[11.048007,60.022995],[11.045853,60.022201],[11.044799,60.021937],[11.0436,60.021916],[11.043228,60.022361]]]]},"properties":{"uid":"AK_LI_002","pid":"P_AK_LI_002_01","n":"Skedsmo Massesenter","src":"resource area (NGU) - NOT an operating footprint","a":288507,"firm":0,"pcls":"resource","note":"NGU geological resource area - not a footprint"}},{"type":"Feature","geometry":{"type":"MultiPolygon","coordinates":[[[[11.112158,59.964723],[11.112029,59.96476],[11.111957,59.964842],[11.111935,59.964997],[11.112072,59.965255],[11.112761,59.966443],[11.113162,59.967418],[11.113541,59.967915],[11.113551,59.968229],[11.113387,59.968428],[11.113381,59.968749],[11.113535,59.969036],[11.113901,59.969509],[11.113888,59.969893],[11.113858,59.969944],[11.11373,59.97016],[11.113912,59.970143],[11.114062,59.970116],[11.114355,59.970064],[11.114424,59.970018],[11.11439,59.969767],[11.114244,59.969437],[11.114214,59.969258],[11.11422,59.96906],[11.114183,59.968773],[11.114167,59.968513],[11.114279,59.968304],[11.114237,59.968206],[11.113986,59.967932],[11.113944,59.967825],[11.114035,59.967572],[11.113964,59.967303],[11.113961,59.966971],[11.114159,59.966699],[11.114152,59.9666],[11.113991,59.966324],[11.113891,59.966146],[11.113585,59.965854],[11.113541,59.96572],[11.113559,59.965442],[11.113552,59.965334],[11.113474,59.965236],[11.113344,59.965167],[11.112962,59.965074],[11.112558,59.96491],[11.112294,59.964717],[11.112158,59.964723]]],[[[11.117381,59.970216],[11.117373,59.970206],[11.11715,59.969935],[11.117052,59.969814],[11.116877,59.969594],[11.116855,59.969567],[11.116857,59.969555],[11.116898,59.969327],[11.116702,59.96908],[11.11651,59.968787],[11.116358,59.968669],[11.116027,59.968411],[11.115823,59.967975],[11.115899,59.96776],[11.115935,59.967661],[11.115704,59.967315],[11.115649,59.967019],[11.115838,59.966821],[11.11574,59.966501],[11.115503,59.966207],[11.1152,59.965964],[11.11496,59.965799],[11.11488,59.965744],[11.114737,59.965423],[11.114263,59.964979],[11.113881,59.965028],[11.113864,59.965098],[11.113809,59.965322],[11.114031,59.965723],[11.114088,59.965826],[11.114395,59.966416],[11.114266,59.967001],[11.11437,59.967526],[11.114396,59.96766],[11.114657,59.968112],[11.114614,59.968913],[11.11482,59.969462],[11.11494,59.969986],[11.114962,59.970311],[11.115055,59.97054],[11.115781,59.970765],[11.116243,59.970853],[11.116532,59.970908],[11.116657,59.970898],[11.117003,59.970869],[11.117348,59.97063],[11.117349,59.97061],[11.11738,59.970224],[11.117381,59.970216]]]]},"properties":{"uid":"AK_LI_003","pid":"P_AK_LI_003_01","n":"J\u00f8lsen Milj\u00f8park","src":"observed footprint","a":85189,"firm":1,"pcls":"observed","note":"worked ground, traced"}},{"type":"Feature","geometry":{"type":"MultiPolygon","coordinates":[[[[11.065164,60.00519],[11.06457,60.005332],[11.064322,60.005385],[11.064073,60.005405],[11.06392,60.005413],[11.063809,60.005425],[11.06369,60.005445],[11.063522,60.005487],[11.06335,60.005536],[11.062661,60.005716],[11.06256,60.005779],[11.062497,60.005835],[11.062461,60.005885],[11.062413,60.005936],[11.062207,60.006027],[11.061974,60.006066],[11.061879,60.006101],[11.061598,60.006165],[11.061511,60.00629],[11.061285,60.006507],[11.061076,60.006686],[11.061036,60.006715],[11.060994,60.006744],[11.060951,60.006773],[11.060908,60.006801],[11.060863,60.006828],[11.060817,60.006855],[11.06077,60.006882],[11.060721,60.006908],[11.060672,60.006934],[11.060622,60.00696],[11.060267,60.00711],[11.060135,60.007165],[11.059908,60.007289],[11.059517,60.007555],[11.05914,60.007843],[11.058827,60.008117],[11.058743,60.008205],[11.058736,60.008256],[11.059229,60.008435],[11.059946,60.008556],[11.062168,60.008891],[11.062795,60.008985],[11.062864,60.008995],[11.062933,60.009006],[11.063002,60.009017],[11.06307,60.009029],[11.063137,60.009041],[11.063204,60.009054],[11.063271,60.009068],[11.063337,60.009083],[11.063402,60.009098],[11.063467,60.009114],[11.063531,60.00913],[11.063595,60.009147],[11.063658,60.009165],[11.06372,60.009183],[11.063781,60.009202],[11.063842,60.009222],[11.063902,60.009242],[11.063961,60.009262],[11.06402,60.009283],[11.064077,60.009305],[11.064134,60.009328],[11.06419,60.00935],[11.064194,60.009348],[11.06427,60.009307],[11.064472,60.009197],[11.064671,60.009091],[11.064264,60.008893],[11.064353,60.008818],[11.06421,60.008649],[11.064633,60.0083],[11.065985,60.008297],[11.066244,60.00847],[11.066104,60.008526],[11.066046,60.008549],[11.065996,60.008568],[11.066543,60.0089],[11.066771,60.008803],[11.066771,60.008804],[11.066869,60.008683],[11.06705,60.00858],[11.067123,60.008556],[11.067153,60.00848],[11.067212,60.00841],[11.067234,60.008412],[11.067637,60.008283],[11.068069,60.008262],[11.0681,60.008251],[11.068294,60.008237],[11.068864,60.008139],[11.069049,60.008027],[11.069319,60.0079],[11.070084,60.0077],[11.070373,60.007625],[11.07094,60.007393],[11.071714,60.007093],[11.072604,60.006956],[11.0732,60.006688],[11.073267,60.006542],[11.073135,60.006462],[11.072803,60.006482],[11.072687,60.006354],[11.072803,60.006263],[11.073869,60.005795],[11.074882,60.005383],[11.075962,60.004938],[11.076814,60.004483],[11.076969,60.004443],[11.077099,60.004364],[11.077505,60.004064],[11.077159,60.003921],[11.077146,60.003903],[11.076775,60.003394],[11.075971,60.003478],[11.075628,60.00357],[11.075178,60.003672],[11.074876,60.003746],[11.074833,60.00378],[11.074699,60.003845],[11.07463,60.003885],[11.07457,60.003901],[11.074039,60.004236],[11.073135,60.004685],[11.072261,60.004952],[11.071019,60.005222],[11.069687,60.005406],[11.06958,60.005367],[11.069512,60.005337],[11.06949,60.005325],[11.069469,60.005313],[11.06945,60.0053],[11.069431,60.005287],[11.069413,60.005274],[11.069286,60.005174],[11.065431,60.005447],[11.065413,60.00542],[11.065355,60.005412],[11.065339,60.005401],[11.065338,60.005386],[11.065339,60.005371],[11.065341,60.005356],[11.065345,60.005341],[11.06535,60.005327],[11.065356,60.005312],[11.065363,60.005298],[11.065314,60.005252],[11.065272,60.005229],[11.065182,60.005208],[11.065164,60.00519]]]]},"properties":{"uid":"AK_LI_004","pid":"P_AK_LI_004_01","n":"ROAF Milj\u00f8park","src":"observed footprint","a":263107,"firm":1,"pcls":"observed","note":"worked ground, traced"}},{"type":"Feature","geometry":{"type":"MultiPolygon","coordinates":[[[[11.176152,60.035061],[11.177352,60.035301],[11.178207,60.035481],[11.178549,60.035542],[11.17872,60.035575],[11.178919,60.03561],[11.179164,60.035649],[11.17944,60.035684],[11.179902,60.035744],[11.180064,60.035764],[11.180813,60.035846],[11.183047,60.036093],[11.183548,60.036142],[11.184091,60.036197],[11.186175,60.036417],[11.187239,60.036532],[11.187217,60.03647],[11.187116,60.036279],[11.187046,60.036125],[11.186864,60.03584],[11.186664,60.035541],[11.186415,60.035158],[11.186204,60.034827],[11.186006,60.03456],[11.185831,60.034347],[11.18567,60.034161],[11.185455,60.033878],[11.185248,60.033628],[11.185036,60.033347],[11.184848,60.033101],[11.184642,60.032859],[11.184475,60.032646],[11.18435,60.032512],[11.184186,60.032387],[11.183983,60.032239],[11.183592,60.032037],[11.183179,60.031818],[11.182893,60.031658],[11.182725,60.031526],[11.182473,60.031326],[11.18232,60.031204],[11.182227,60.03109],[11.182157,60.031007],[11.182092,60.030881],[11.182059,60.030716],[11.182031,60.030561],[11.182034,60.030354],[11.182009,60.030125],[11.182015,60.029997],[11.181998,60.029848],[11.181944,60.029658],[11.181894,60.029487],[11.181834,60.029298],[11.181815,60.029259],[11.181014,60.029502],[11.180982,60.02963],[11.180791,60.029704],[11.180534,60.0298],[11.180388,60.029855],[11.180216,60.029914],[11.180056,60.029969],[11.179884,60.030025],[11.179648,60.030097],[11.179322,60.030204],[11.179182,60.030251],[11.178751,60.030423],[11.178692,60.030602],[11.178507,60.030557],[11.178427,60.03051],[11.178038,60.030493],[11.177982,60.030505],[11.177289,60.030712],[11.177207,60.030777],[11.177184,60.030796],[11.177151,60.030821],[11.17713,60.030849],[11.177119,60.030874],[11.177116,60.030911],[11.177107,60.030935],[11.177093,60.030955],[11.177058,60.030974],[11.177013,60.030991],[11.176969,60.031003],[11.176935,60.031016],[11.176897,60.031035],[11.176858,60.031057],[11.176833,60.031085],[11.17681,60.031119],[11.176788,60.03115],[11.176766,60.031172],[11.176715,60.031197],[11.176658,60.031219],[11.176598,60.031234],[11.176549,60.031251],[11.176513,60.031261],[11.17644,60.031288],[11.176379,60.031307],[11.176329,60.031314],[11.17627,60.031317],[11.176235,60.031319],[11.176196,60.031321],[11.176148,60.031327],[11.176132,60.031331],[11.176092,60.031346],[11.176059,60.031362],[11.176014,60.031382],[11.175941,60.031407],[11.175891,60.031423],[11.175842,60.031435],[11.175787,60.031446],[11.175739,60.03146],[11.175696,60.031475],[11.175651,60.031496],[11.175614,60.031515],[11.175591,60.031533],[11.175573,60.031558],[11.175565,60.031581],[11.175556,60.031597],[11.175551,60.031619],[11.175546,60.031637],[11.175537,60.031647],[11.175517,60.031668],[11.175507,60.03168],[11.175507,60.031682],[11.17548,60.031706],[11.175439,60.031732],[11.17539,60.031761],[11.175341,60.031782],[11.175334,60.031785],[11.175295,60.031806],[11.175265,60.031826],[11.175202,60.031843],[11.175133,60.031866],[11.175102,60.03188],[11.175078,60.031909],[11.175076,60.03193],[11.175077,60.031958],[11.175078,60.031962],[11.175062,60.031977],[11.175029,60.031987],[11.174977,60.031997],[11.174914,60.032001],[11.17486,60.031997],[11.17481,60.031987],[11.174765,60.03198],[11.174732,60.031978],[11.174702,60.031979],[11.174697,60.031981],[11.174634,60.031995],[11.174587,60.03201],[11.174539,60.032023],[11.17448,60.032039],[11.174436,60.03206],[11.174407,60.032075],[11.174386,60.032092],[11.17437,60.032109],[11.174358,60.032119],[11.174345,60.032133],[11.174324,60.032166],[11.174315,60.032186],[11.174307,60.032216],[11.174307,60.032247],[11.174317,60.032279],[11.174332,60.032321],[11.174336,60.032353],[11.174338,60.032382],[11.174338,60.032416],[11.174337,60.032445],[11.174336,60.032476],[11.174322,60.032497],[11.174311,60.032513],[11.174279,60.032536],[11.174244,60.032558],[11.174222,60.032571],[11.17417,60.032595],[11.174142,60.032619],[11.174126,60.03265],[11.174125,60.032679],[11.174116,60.032701],[11.174104,60.032711],[11.174073,60.032719],[11.174007,60.032732],[11.173968,60.03274],[11.1739,60.03275],[11.173819,60.032756],[11.173746,60.032756],[11.173694,60.032753],[11.173654,60.032753],[11.173591,60.032755],[11.173532,60.032757],[11.173466,60.032759],[11.1734,60.032772],[11.173357,60.032789],[11.173321,60.032816],[11.173289,60.032847],[11.173259,60.032888],[11.173249,60.032906],[11.173237,60.032918],[11.173213,60.032931],[11.173187,60.032935],[11.17316,60.032937],[11.173117,60.032933],[11.173068,60.032926],[11.173016,60.032915],[11.172967,60.032906],[11.17291,60.032893],[11.172881,60.032884],[11.17283,60.03287],[11.1728,60.032864],[11.17276,60.032861],[11.172712,60.032869],[11.172682,60.032882],[11.172641,60.032908],[11.172589,60.032946],[11.172543,60.032978],[11.172506,60.033009],[11.172474,60.033031],[11.17242,60.033048],[11.172358,60.033058],[11.172299,60.033062],[11.17222,60.033072],[11.172175,60.033081],[11.172149,60.033087],[11.172123,60.033098],[11.172088,60.03312],[11.172061,60.033138],[11.172027,60.033157],[11.171968,60.033186],[11.171924,60.033204],[11.171885,60.033219],[11.17186,60.03323],[11.171838,60.033245],[11.171821,60.033266],[11.171798,60.033302],[11.172086,60.033372],[11.171979,60.033475],[11.172118,60.033518],[11.172201,60.03356],[11.172692,60.03376],[11.17292,60.033917],[11.173114,60.034167],[11.173313,60.034282],[11.17337,60.034302],[11.173601,60.034379],[11.173949,60.034498],[11.174299,60.034551],[11.174959,60.03477],[11.1755,60.034859],[11.175588,60.034879],[11.176152,60.035061]]]]},"properties":{"uid":"AK_LI_005","pid":"P_AK_LI_005_01","n":"Asak Massemottak (Nedlagt)","src":"cadastral parcel (Matrikkelen Teig)","a":344976,"firm":0,"pcls":"property","note":"a cadastral parcel - a property line, not an operational one"}},{"type":"Feature","geometry":{"type":"MultiPolygon","coordinates":[[[[11.08304,60.032923],[11.083172,60.032759],[11.083856,60.032601],[11.084345,60.03237],[11.084545,60.032238],[11.084552,60.032043],[11.084577,60.031829],[11.084623,60.031515],[11.084608,60.031273],[11.084443,60.031061],[11.083034,60.030556],[11.081942,60.030421],[11.080435,60.030326],[11.080035,60.030461],[11.080142,60.030792],[11.080613,60.031188],[11.080917,60.03134],[11.081183,60.031488],[11.081634,60.032018],[11.081387,60.032312],[11.080915,60.03251],[11.08055,60.032748],[11.080408,60.033064],[11.081615,60.033216],[11.082336,60.03321],[11.082649,60.033195],[11.08304,60.032923]]]]},"properties":{"uid":"AK_LI_009","pid":"P_AK_LI_009_01","n":"Veidekke Esval Deponi","src":"observed footprint","a":54398,"firm":1,"pcls":"observed","note":"worked ground, traced"}},{"type":"Feature","geometry":{"type":"MultiPolygon","coordinates":[[[[11.401711,60.186358],[11.40175,60.185121],[11.401715,60.184728],[11.400724,60.185172],[11.398819,60.185651],[11.397335,60.186156],[11.394561,60.187275],[11.393295,60.187431],[11.393387,60.187561],[11.392014,60.187742],[11.390797,60.18767],[11.389377,60.188601],[11.389052,60.188594],[11.388845,60.188731],[11.388396,60.188704],[11.388441,60.189271],[11.389267,60.189442],[11.390028,60.189804],[11.390178,60.19002],[11.390921,60.190193],[11.391209,60.19037],[11.392116,60.190318],[11.39274,60.190647],[11.392994,60.190809],[11.393169,60.190871],[11.393612,60.19088],[11.394308,60.190815],[11.394623,60.190757],[11.39483,60.190702],[11.394902,60.190631],[11.395245,60.190541],[11.395463,60.190762],[11.396635,60.190493],[11.397683,60.190533],[11.399473,60.189508],[11.40173,60.188578],[11.401803,60.188531],[11.401728,60.188489],[11.401615,60.18854],[11.401496,60.188473],[11.401664,60.188397],[11.401786,60.188327],[11.401832,60.188286],[11.401882,60.188217],[11.40218,60.187552],[11.402354,60.187234],[11.402485,60.187046],[11.402345,60.186949],[11.402326,60.187027],[11.402284,60.187108],[11.402221,60.187186],[11.402138,60.18726],[11.402036,60.187327],[11.401918,60.187387],[11.401661,60.187477],[11.401484,60.187515],[11.401321,60.187538],[11.401153,60.18755],[11.400984,60.187551],[11.400816,60.187541],[11.400652,60.18752],[11.400495,60.187489],[11.400348,60.187447],[11.400212,60.187397],[11.400113,60.18735],[11.399742,60.187587],[11.39937,60.187807],[11.400652,60.186988],[11.400834,60.187084],[11.401725,60.186682],[11.401585,60.186377],[11.401711,60.186358]],[[11.399222,60.18783],[11.399061,60.187807],[11.398787,60.18777],[11.39937,60.187807],[11.399222,60.18783]],[[11.39853,60.18766],[11.398066,60.187462],[11.398787,60.18777],[11.39853,60.18766]],[[11.398054,60.187462],[11.398712,60.18732],[11.398066,60.187462],[11.398054,60.187462]],[[11.393297,60.190037],[11.392733,60.190187],[11.392507,60.190225],[11.393297,60.190037]],[[11.393915,60.189614],[11.393541,60.18988],[11.393297,60.190037],[11.393915,60.189614]],[[11.394065,60.18899],[11.394069,60.189017],[11.394109,60.189262],[11.394065,60.18899]],[[11.394431,60.188343],[11.394238,60.188709],[11.394065,60.18899],[11.394431,60.188343]],[[11.395529,60.188283],[11.395237,60.188331],[11.394912,60.188357],[11.394529,60.18836],[11.394431,60.188343],[11.395529,60.188283]],[[11.396269,60.187954],[11.395646,60.188263],[11.395624,60.188267],[11.396269,60.187954]],[[11.401023,60.186433],[11.400033,60.186376],[11.401066,60.186425],[11.401023,60.186433]],[[11.398189,60.187917],[11.397385,60.18835],[11.398465,60.1877],[11.398189,60.187917]]],[[[11.404859,60.189169],[11.405018,60.189073],[11.405944,60.189227],[11.406314,60.189226],[11.408451,60.188763],[11.407616,60.188589],[11.406714,60.188592],[11.406699,60.188639],[11.406632,60.188686],[11.406529,60.188711],[11.406467,60.188713],[11.406391,60.188705],[11.406374,60.188725],[11.402392,60.187908],[11.402302,60.187904],[11.402217,60.187929],[11.402184,60.187962],[11.402039,60.18827],[11.401937,60.188376],[11.401808,60.188453],[11.40187,60.188488],[11.401982,60.188416],[11.40268,60.188786],[11.402733,60.188762],[11.404859,60.189169]]]]},"properties":{"uid":"AK_NE_001","pid":"P_AK_NE_001_01","n":"Esval Milj\u00f8park","src":"arealformal (permitted use)","a":286679,"firm":1,"pcls":"permitted","note":"the arealformal zone that licenses the activity"}},{"type":"Feature","geometry":{"type":"MultiPolygon","coordinates":[[[[11.409963,60.188534],[11.406352,60.189315],[11.405915,60.189317],[11.404901,60.189148],[11.404859,60.189169],[11.402733,60.188762],[11.400754,60.189664],[11.400683,60.189883],[11.400306,60.190021],[11.400176,60.190445],[11.398409,60.190864],[11.397119,60.190715],[11.396261,60.190814],[11.394606,60.191225],[11.394231,60.191285],[11.393403,60.19133],[11.392079,60.191148],[11.391836,60.190968],[11.390706,60.190236],[11.390022,60.190099],[11.389431,60.189788],[11.38911,60.189565],[11.386649,60.189578],[11.386746,60.189506],[11.386914,60.189421],[11.38708,60.189363],[11.387217,60.189274],[11.387232,60.18915],[11.387064,60.189195],[11.386946,60.189167],[11.386875,60.189115],[11.386829,60.189021],[11.386757,60.188958],[11.386945,60.188831],[11.387157,60.18874],[11.387373,60.188709],[11.387758,60.188713],[11.388576,60.188699],[11.388659,60.188702],[11.388845,60.188731],[11.390502,60.187632],[11.390888,60.187585],[11.391638,60.187653],[11.393698,60.187376],[11.394104,60.187376],[11.394561,60.187275],[11.394877,60.187136],[11.394794,60.18709],[11.394986,60.187048],[11.395682,60.186806],[11.396208,60.186588],[11.396353,60.186515],[11.397303,60.186135],[11.398791,60.185628],[11.399118,60.185537],[11.400143,60.185298],[11.400694,60.185149],[11.400856,60.185092],[11.401191,60.184947],[11.401641,60.184699],[11.402191,60.184453],[11.402698,60.184312],[11.402683,60.184835],[11.405284,60.184997],[11.40605,60.185655],[11.405447,60.186986],[11.406596,60.187719],[11.406716,60.187743],[11.406633,60.187851],[11.409963,60.188534],[11.409963,60.188534]]]]},"properties":{"uid":"AK_NE_001","pid":"P_AK_NE_001_02","n":"Esval Milj\u00f8park","src":"reguleringsplan (RpOmrade)","a":449642,"firm":0,"pcls":"plan","note":"legal plan envelope - routinely larger than the worked ground"}},{"type":"Feature","geometry":{"type":"MultiPolygon","coordinates":[[[[10.819062,60.135298],[10.819657,60.135406],[10.820033,60.135489],[10.82022,60.135057],[10.820777,60.13509],[10.82054,60.135582],[10.820618,60.135578],[10.820856,60.13559],[10.821352,60.135587],[10.821804,60.135629],[10.822168,60.135693],[10.822261,60.135725],[10.822324,60.135762],[10.822466,60.13588],[10.822577,60.135947],[10.822994,60.136146],[10.822956,60.136163],[10.82294,60.136182],[10.822944,60.13621],[10.822965,60.136227],[10.823313,60.136333],[10.823387,60.136346],[10.823466,60.136348],[10.823542,60.136341],[10.823613,60.136323],[10.823925,60.136177],[10.824436,60.136161],[10.824605,60.136132],[10.824694,60.136106],[10.825065,60.13596],[10.825299,60.135847],[10.825642,60.135611],[10.825749,60.135558],[10.826306,60.13533],[10.826644,60.135289],[10.826795,60.135257],[10.82703,60.135182],[10.827255,60.13508],[10.827299,60.135042],[10.82731,60.135013],[10.827306,60.134984],[10.827272,60.134943],[10.82721,60.134912],[10.826912,60.134842],[10.826902,60.134825],[10.827032,60.134591],[10.827074,60.134428],[10.827073,60.134263],[10.827013,60.134034],[10.827017,60.133907],[10.827359,60.133523],[10.827668,60.133206],[10.828742,60.132747],[10.829286,60.132402],[10.829712,60.132491],[10.830186,60.132139],[10.830054,60.132059],[10.830495,60.13192],[10.831329,60.131937],[10.831359,60.131453],[10.831405,60.131308],[10.831291,60.131285],[10.83089,60.131163],[10.830886,60.131124],[10.830921,60.131048],[10.83119,60.130735],[10.831468,60.130802],[10.831685,60.130589],[10.832081,60.130658],[10.831873,60.130907],[10.832229,60.130985],[10.832393,60.131045],[10.833818,60.131151],[10.833882,60.131145],[10.833946,60.131104],[10.833954,60.131091],[10.833942,60.131061],[10.833875,60.130978],[10.833589,60.13069],[10.833259,60.130319],[10.833082,60.130064],[10.83303,60.13008],[10.832942,60.129898],[10.832914,60.129728],[10.83296,60.129503],[10.833038,60.129378],[10.833132,60.129263],[10.833548,60.128873],[10.833615,60.128792],[10.83366,60.128707],[10.833682,60.12862],[10.833682,60.128533],[10.833658,60.128446],[10.833617,60.128368],[10.833044,60.127502],[10.833049,60.127604],[10.833033,60.127668],[10.83295,60.127791],[10.832885,60.127847],[10.832601,60.128016],[10.832546,60.12809],[10.832501,60.128118],[10.83245,60.128136],[10.832291,60.128148],[10.832094,60.128203],[10.832032,60.128261],[10.831995,60.128326],[10.831951,60.128373],[10.831641,60.12854],[10.831577,60.128594],[10.831542,60.128664],[10.831466,60.128716],[10.83134,60.128751],[10.830769,60.128854],[10.830739,60.128898],[10.830712,60.128892],[10.830665,60.128922],[10.830601,60.128941],[10.830346,60.128984],[10.830098,60.128993],[10.82997,60.129031],[10.829939,60.129019],[10.82979,60.129111],[10.829567,60.12928],[10.829514,60.129295],[10.829457,60.129297],[10.829406,60.129287],[10.829348,60.129259],[10.829258,60.129181],[10.829116,60.129131],[10.828736,60.129057],[10.828374,60.129491],[10.827872,60.130031],[10.827462,60.130433],[10.827088,60.130769],[10.826662,60.131125],[10.826173,60.131504],[10.825722,60.13183],[10.825074,60.132271],[10.824849,60.132416],[10.824673,60.132528],[10.824038,60.132908],[10.823148,60.133395],[10.822783,60.133581],[10.822463,60.133738],[10.821787,60.13406],[10.819062,60.135298]]],[[[10.828436,60.128948],[10.826777,60.130679],[10.824565,60.132306],[10.822528,60.133454],[10.81868,60.135229],[10.819062,60.135298],[10.822783,60.133581],[10.824849,60.132416],[10.827088,60.130769],[10.828736,60.129057],[10.828436,60.128948]]]]},"properties":{"uid":"AK_NI_001","pid":"P_AK_NI_001_01","n":"NOAH Engadalen","src":"arealformal (permitted use)","a":255314,"firm":1,"pcls":"permitted","note":"the arealformal zone that licenses the activity"}},{"type":"Feature","geometry":{"type":"MultiPolygon","coordinates":[[[[10.83372,60.128922],[10.83331,60.129306],[10.833225,60.12941],[10.833152,60.129529],[10.833112,60.129728],[10.833121,60.129812],[10.833137,60.129882],[10.833205,60.130026],[10.833082,60.130064],[10.83336,60.130439],[10.833875,60.130978],[10.833942,60.131061],[10.833946,60.131104],[10.833882,60.131145],[10.833818,60.131151],[10.832393,60.131045],[10.832229,60.130985],[10.831873,60.130907],[10.832081,60.130658],[10.831685,60.130589],[10.831468,60.130802],[10.83119,60.130735],[10.830921,60.131048],[10.830886,60.131124],[10.83089,60.131163],[10.831291,60.131285],[10.831405,60.131308],[10.831359,60.131453],[10.831329,60.131937],[10.830495,60.13192],[10.830054,60.132059],[10.830186,60.132139],[10.829712,60.132491],[10.829286,60.132402],[10.828742,60.132747],[10.827668,60.133206],[10.827359,60.133523],[10.827017,60.133907],[10.827013,60.134034],[10.827073,60.134263],[10.827074,60.134428],[10.827032,60.134591],[10.826902,60.134828],[10.826912,60.134842],[10.827233,60.134921],[10.827287,60.134956],[10.82731,60.134998],[10.827306,60.135028],[10.827273,60.135068],[10.827119,60.135144],[10.826936,60.135216],[10.826795,60.135257],[10.826644,60.135289],[10.826306,60.13533],[10.825749,60.135558],[10.825642,60.135611],[10.825299,60.135847],[10.825065,60.13596],[10.824682,60.13611],[10.824605,60.136132],[10.824436,60.136161],[10.823925,60.136177],[10.823613,60.136323],[10.823466,60.136348],[10.823313,60.136333],[10.822965,60.136227],[10.82294,60.136182],[10.822994,60.136146],[10.822577,60.135947],[10.822466,60.13588],[10.822324,60.135762],[10.822261,60.135725],[10.822168,60.135693],[10.821804,60.135629],[10.821352,60.135587],[10.820856,60.13559],[10.820559,60.135579],[10.820308,60.135613],[10.820224,60.135584],[10.819695,60.135471],[10.818974,60.13534],[10.817413,60.136061],[10.816414,60.136553],[10.816111,60.136758],[10.815214,60.137183],[10.815028,60.137085],[10.814472,60.137349],[10.81421,60.137197],[10.815683,60.136466],[10.817198,60.135756],[10.821343,60.133868],[10.823265,60.1329],[10.823478,60.13278],[10.824981,60.131839],[10.825708,60.131322],[10.826839,60.130387],[10.82735,60.129895],[10.828238,60.128881],[10.828385,60.12891],[10.828468,60.128973],[10.828722,60.129055],[10.829116,60.129131],[10.829258,60.129181],[10.829348,60.129259],[10.831056,60.128068],[10.832269,60.127281],[10.832919,60.127191],[10.832943,60.12708],[10.832979,60.12701],[10.833053,60.126917],[10.833137,60.126844],[10.83317,60.126838],[10.833222,60.126801],[10.833219,60.126787],[10.833521,60.126591],[10.83406,60.126293],[10.834375,60.126104],[10.835235,60.125504],[10.835608,60.125296],[10.835682,60.12522],[10.835715,60.125138],[10.835711,60.12508],[10.83574,60.125054],[10.835726,60.125016],[10.835689,60.125014],[10.835607,60.124839],[10.835536,60.124794],[10.835449,60.124779],[10.835315,60.124783],[10.834702,60.124883],[10.834367,60.124907],[10.834357,60.124822],[10.834642,60.124802],[10.834918,60.124761],[10.836439,60.124434],[10.836515,60.124525],[10.835815,60.124694],[10.835795,60.124733],[10.835796,60.124781],[10.835872,60.124965],[10.835842,60.124983],[10.835856,60.125023],[10.835892,60.125019],[10.83593,60.125134],[10.835919,60.125218],[10.835866,60.125298],[10.835772,60.125369],[10.835551,60.125475],[10.835356,60.125587],[10.83454,60.12616],[10.83421,60.126357],[10.833673,60.126655],[10.83336,60.126858],[10.833324,60.126855],[10.833288,60.126881],[10.833304,60.126897],[10.833175,60.127028],[10.833119,60.127172],[10.833138,60.127318],[10.833853,60.128427],[10.833879,60.128526],[10.833879,60.128634],[10.833854,60.128726],[10.833802,60.128823],[10.83372,60.128922],[10.83372,60.128922]]]]},"properties":{"uid":"AK_NI_001","pid":"P_AK_NI_001_02","n":"NOAH Engadalen","src":"reguleringsplan (RpOmrade)","a":302777,"firm":0,"pcls":"plan","note":"legal plan envelope - routinely larger than the worked ground"}},{"type":"Feature","geometry":{"type":"MultiPolygon","coordinates":[[[[11.166237,60.177064],[11.166191,60.177028],[11.166151,60.176991],[11.166116,60.176953],[11.166087,60.176914],[11.166063,60.176874],[11.166058,60.176869],[11.165987,60.176732],[11.165966,60.176637],[11.165719,60.176645],[11.165168,60.176689],[11.164315,60.176714],[11.164051,60.176835],[11.163615,60.176969],[11.162788,60.177181],[11.163433,60.17833],[11.164242,60.178133],[11.164602,60.178034],[11.164908,60.17796],[11.16523,60.177915],[11.165907,60.177866],[11.166345,60.177846],[11.166697,60.177854],[11.167033,60.177872],[11.167083,60.177872],[11.167133,60.177872],[11.167183,60.177871],[11.167233,60.17787],[11.167282,60.177868],[11.167332,60.177866],[11.167382,60.177863],[11.167424,60.17786],[11.167466,60.177856],[11.167508,60.177852],[11.167549,60.177847],[11.16759,60.177841],[11.167631,60.177835],[11.167672,60.177828],[11.167711,60.17782],[11.167686,60.177793],[11.167667,60.177765],[11.167654,60.177737],[11.167647,60.177707],[11.167646,60.177678],[11.167651,60.177648],[11.167482,60.177538],[11.167238,60.177435],[11.166959,60.17736],[11.166685,60.17728],[11.166489,60.177201],[11.166463,60.177187],[11.1664,60.177159],[11.166341,60.177129],[11.166287,60.177097],[11.166237,60.177064]]]]},"properties":{"uid":"AK_UL_001","pid":"P_AK_UL_001_01","n":"Ragn-Sells avd. Gardermoen","src":"cadastral parcel (Matrikkelen Teig)","a":28890,"firm":0,"pcls":"property","note":"a cadastral parcel - a property line, not an operational one"}},{"type":"Feature","geometry":{"type":"MultiPolygon","coordinates":[[[[11.201106,60.230896],[11.201109,60.228332],[11.190946,60.228389],[11.189869,60.22938],[11.189612,60.233082],[11.190489,60.233481],[11.195626,60.233542],[11.201106,60.230896]],[[11.194592,60.230824],[11.194973,60.231357],[11.194807,60.231149],[11.194592,60.230824]],[[11.194676,60.233441],[11.195555,60.233451],[11.190561,60.233392],[11.194676,60.233441]]]]},"properties":{"uid":"AK_UL_002","pid":"P_AK_UL_002_01","n":"\u00d8RAS Milj\u00f8stasjon Dal Skog","src":"arealformal (permitted use)","a":312356,"firm":1,"pcls":"permitted","note":"the arealformal zone that licenses the activity"}},{"type":"Feature","geometry":{"type":"MultiPolygon","coordinates":[[[[11.201012,60.230941],[11.195626,60.233542],[11.190489,60.233481],[11.189612,60.233082],[11.189869,60.22938],[11.190946,60.228389],[11.201109,60.228332],[11.201106,60.230896],[11.201012,60.230941],[11.201012,60.230941]]]]},"properties":{"uid":"AK_UL_002","pid":"P_AK_UL_002_02","n":"\u00d8RAS Milj\u00f8stasjon Dal Skog","src":"reguleringsplan (RpOmrade)","a":312383,"firm":0,"pcls":"plan","note":"legal plan envelope - routinely larger than the worked ground"}},{"type":"Feature","geometry":{"type":"MultiPolygon","coordinates":[[[[11.130667,60.173482],[11.133215,60.173116],[11.133228,60.173138],[11.133215,60.17314],[11.133196,60.173142],[11.133136,60.173158],[11.133085,60.173181],[11.133048,60.173209],[11.133026,60.173241],[11.133021,60.173275],[11.133033,60.173309],[11.133061,60.17334],[11.133104,60.173366],[11.133159,60.173387],[11.133222,60.1734],[11.133261,60.173402],[11.133312,60.173407],[11.133377,60.173416],[11.133399,60.17342],[11.134565,60.17535],[11.135236,60.176459],[11.135065,60.176515],[11.134929,60.176591],[11.134841,60.176673],[11.134732,60.176788],[11.134532,60.176905],[11.13432,60.176977],[11.132935,60.177384],[11.130558,60.173498],[11.129902,60.172419],[11.12928,60.172719],[11.130869,60.175351],[11.132363,60.177823],[11.133089,60.177609],[11.135025,60.17704],[11.135089,60.177076],[11.135161,60.177107],[11.135244,60.177134],[11.135333,60.177155],[11.135383,60.177167],[11.135429,60.177182],[11.135471,60.1772],[11.135752,60.177157],[11.135856,60.177142],[11.135961,60.177126],[11.135968,60.177125],[11.136072,60.177109],[11.136192,60.177091],[11.13621,60.177044],[11.136235,60.176997],[11.136267,60.176951],[11.136302,60.176911],[11.136342,60.176872],[11.136403,60.176823],[11.136473,60.176776],[11.13655,60.176733],[11.136636,60.176693],[11.136728,60.176657],[11.136826,60.176626],[11.138213,60.176218],[11.138975,60.175994],[11.139162,60.176304],[11.139385,60.176238],[11.13957,60.176184],[11.139598,60.175992],[11.139638,60.1758],[11.140137,60.175653],[11.140234,60.175627],[11.140284,60.175617],[11.140335,60.175609],[11.140388,60.175603],[11.140442,60.175598],[11.140495,60.175596],[11.140549,60.175595],[11.140603,60.175596],[11.140657,60.1756],[11.14071,60.175605],[11.140762,60.175612],[11.140813,60.175621],[11.140863,60.175631],[11.140911,60.175644],[11.140957,60.175658],[11.141001,60.175673],[11.141043,60.175691],[11.141082,60.175709],[11.141118,60.175729],[11.141135,60.175743],[11.141152,60.175756],[11.141171,60.175769],[11.141191,60.175781],[11.141214,60.175801],[11.141237,60.175822],[11.141258,60.175843],[11.141278,60.175865],[11.141296,60.175886],[11.141314,60.175908],[11.14133,60.17593],[11.141345,60.175953],[11.141359,60.175975],[11.141371,60.175998],[11.141383,60.176021],[11.141389,60.176036],[11.141395,60.176052],[11.141401,60.176067],[11.141419,60.17612],[11.141438,60.176173],[11.141459,60.176225],[11.141481,60.176278],[11.141505,60.17633],[11.14153,60.176382],[11.141556,60.176434],[11.141583,60.176485],[11.141653,60.176604],[11.141726,60.176716],[11.141805,60.176827],[11.141891,60.176937],[11.141983,60.177046],[11.142081,60.177153],[11.142186,60.177259],[11.142296,60.177363],[11.142413,60.177466],[11.142536,60.177567],[11.142664,60.177666],[11.142798,60.177763],[11.143009,60.177905],[11.143147,60.17799],[11.143288,60.178074],[11.143435,60.178156],[11.143585,60.178235],[11.14374,60.178313],[11.143899,60.178388],[11.144062,60.178462],[11.144229,60.178533],[11.1444,60.178602],[11.144481,60.178637],[11.144557,60.178674],[11.14463,60.178713],[11.144696,60.178755],[11.145276,60.178665],[11.14525,60.178644],[11.145223,60.178623],[11.145195,60.178603],[11.145166,60.178584],[11.145136,60.178564],[11.145105,60.178545],[11.145073,60.178526],[11.145039,60.178507],[11.145004,60.178488],[11.144968,60.178469],[11.144931,60.178451],[11.144894,60.178434],[11.144855,60.178416],[11.144816,60.1784],[11.144776,60.178383],[11.144735,60.178368],[11.14456,60.178296],[11.144486,60.178265],[11.144414,60.178234],[11.144342,60.178202],[11.144266,60.178167],[11.14419,60.178131],[11.144116,60.178095],[11.144043,60.178059],[11.143971,60.178022],[11.1439,60.177984],[11.14383,60.177946],[11.143761,60.177908],[11.143693,60.177869],[11.143626,60.17783],[11.14356,60.17779],[11.143495,60.17775],[11.143431,60.177709],[11.143369,60.177668],[11.143308,60.177626],[11.143247,60.177584],[11.143188,60.177542],[11.143131,60.177499],[11.143074,60.177456],[11.143018,60.177413],[11.142964,60.177369],[11.142911,60.177324],[11.142859,60.17728],[11.142809,60.177235],[11.142759,60.177189],[11.142711,60.177144],[11.142664,60.177098],[11.142619,60.177051],[11.142575,60.177005],[11.142532,60.176958],[11.14249,60.176911],[11.14245,60.176863],[11.142411,60.176815],[11.142373,60.176767],[11.142337,60.176719],[11.142301,60.176671],[11.142268,60.176622],[11.142235,60.176573],[11.142204,60.176524],[11.142175,60.176474],[11.142146,60.176425],[11.142119,60.176375],[11.142094,60.176325],[11.14207,60.176275],[11.142047,60.176224],[11.142026,60.176174],[11.142006,60.176123],[11.141987,60.176073],[11.14197,60.176022],[11.14196,60.175995],[11.141949,60.175968],[11.141937,60.175941],[11.141923,60.175914],[11.141908,60.175887],[11.141892,60.175861],[11.141874,60.175835],[11.141855,60.175809],[11.141835,60.175783],[11.141813,60.175758],[11.141791,60.175733],[11.141767,60.175708],[11.141741,60.175683],[11.141715,60.175659],[11.141687,60.175635],[11.141671,60.175621],[11.141657,60.175606],[11.141643,60.175591],[11.141631,60.175576],[11.14162,60.17556],[11.14161,60.175544],[11.141602,60.175529],[11.141595,60.175512],[11.14159,60.175496],[11.141586,60.17548],[11.141584,60.175464],[11.141583,60.175447],[11.141583,60.175431],[11.141585,60.175414],[11.141588,60.175398],[11.141593,60.175382],[11.141599,60.175366],[11.141606,60.17535],[11.141615,60.175334],[11.141625,60.175318],[11.141637,60.175303],[11.14165,60.175288],[11.141664,60.175273],[11.14168,60.175258],[11.141696,60.175244],[11.141714,60.175231],[11.141734,60.175217],[11.141754,60.175204],[11.141775,60.175192],[11.141798,60.17518],[11.141822,60.175168],[11.141846,60.175157],[11.141872,60.175147],[11.141898,60.175137],[11.141925,60.175128],[11.141953,60.175119],[11.148212,60.173279],[11.148249,60.173268],[11.148286,60.173259],[11.148324,60.173249],[11.148363,60.173241],[11.148402,60.173233],[11.148441,60.173226],[11.148481,60.173219],[11.148522,60.173213],[11.148562,60.173208],[11.148603,60.173203],[11.148645,60.173199],[11.148686,60.173195],[11.148728,60.173193],[11.14877,60.17319],[11.148812,60.173189],[11.148854,60.173188],[11.148897,60.173188],[11.148939,60.173189],[11.148981,60.17319],[11.149023,60.173192],[11.149065,60.173195],[11.149106,60.173198],[11.149148,60.173202],[11.149189,60.173206],[11.14923,60.173212],[11.14927,60.173218],[11.14931,60.173224],[11.14935,60.173231],[11.149389,60.173239],[11.149428,60.173248],[11.149466,60.173257],[11.152803,60.175787],[11.153762,60.176514],[11.153767,60.176518],[11.154275,60.176332],[11.153991,60.176092],[11.153598,60.175779],[11.15327,60.175483],[11.152616,60.174929],[11.152114,60.174563],[11.151676,60.174258],[11.151102,60.173871],[11.150638,60.173509],[11.150388,60.17337],[11.149914,60.173148],[11.14906,60.172778],[11.148525,60.172522],[11.147469,60.171971],[11.14698,60.1717],[11.146352,60.171327],[11.145825,60.170989],[11.144903,60.170287],[11.144462,60.170053],[11.144245,60.16992],[11.144157,60.169773],[11.143885,60.169583],[11.143586,60.169435],[11.143203,60.169384],[11.142901,60.16945],[11.141698,60.169787],[11.141432,60.169883],[11.140663,60.170096],[11.140384,60.17018],[11.139833,60.170345],[11.139318,60.170487],[11.139018,60.170573],[11.139014,60.170686],[11.138917,60.170829],[11.138907,60.170938],[11.138443,60.171066],[11.138345,60.170992],[11.138078,60.170945],[11.137949,60.170904],[11.13766,60.170923],[11.137394,60.170986],[11.137139,60.171047],[11.13647,60.171202],[11.136444,60.171208],[11.136293,60.171243],[11.13558,60.171407],[11.135077,60.171501],[11.134475,60.171609],[11.133826,60.171699],[11.133105,60.171754],[11.132838,60.171756],[11.133554,60.172944],[11.133235,60.172991],[11.133174,60.172977],[11.133107,60.172969],[11.133044,60.172968],[11.132981,60.172973],[11.130805,60.173285],[11.130748,60.173299],[11.1307,60.173318],[11.130664,60.173343],[11.130642,60.173369],[11.130632,60.173402],[11.130639,60.173433],[11.130667,60.173482]],[[11.13868,60.171317],[11.13847,60.171126],[11.138439,60.171104],[11.138385,60.171079],[11.138366,60.171073],[11.138298,60.17106],[11.138257,60.171061],[11.138217,60.171058],[11.138172,60.171052],[11.138107,60.171038],[11.138046,60.171024],[11.137926,60.17101],[11.137872,60.171035],[11.137702,60.171058],[11.137417,60.171103],[11.136543,60.171293],[11.137089,60.171768],[11.13868,60.171317]],[[11.133635,60.173076],[11.134113,60.173868],[11.134695,60.174831],[11.13512,60.175536],[11.135577,60.176291],[11.135632,60.176288],[11.135885,60.17625],[11.135969,60.176385],[11.137074,60.17622],[11.137212,60.176179],[11.13853,60.175791],[11.137964,60.174854],[11.137904,60.174865],[11.137843,60.174876],[11.13778,60.174886],[11.137717,60.174896],[11.137357,60.17495],[11.136543,60.175072],[11.136544,60.175052],[11.136549,60.175032],[11.136564,60.175009],[11.136587,60.174988],[11.136612,60.174973],[11.136642,60.174959],[11.136683,60.174946],[11.136729,60.174937],[11.13709,60.174882],[11.137082,60.174869],[11.13712,60.174859],[11.13715,60.174841],[11.137163,60.174817],[11.137158,60.174797],[11.136971,60.174487],[11.136398,60.173545],[11.13586,60.172648],[11.135196,60.172842],[11.133635,60.173076]]]]},"properties":{"uid":"AK_UL_003","pid":"P_AK_UL_003_01","n":"Veidekke Gardermoen Massesenter","src":"cadastral parcel (Matrikkelen Teig)","a":416032,"firm":0,"pcls":"property","note":"a cadastral parcel - a property line, not an operational one"}},{"type":"Feature","geometry":{"type":"MultiPolygon","coordinates":[[[[11.202514,60.11936],[11.20245,60.11931],[11.201892,60.118709],[11.200806,60.117455],[11.204783,60.116724],[11.205071,60.117035],[11.205162,60.117232],[11.205192,60.11735],[11.205173,60.117602],[11.205104,60.117731],[11.204941,60.117937],[11.204866,60.11806],[11.204819,60.11818],[11.204864,60.118267],[11.204889,60.118394],[11.20497,60.118548],[11.205182,60.118821],[11.205415,60.118999],[11.205506,60.119135],[11.205522,60.119269],[11.205475,60.11939],[11.205416,60.119472],[11.205338,60.119524],[11.205221,60.11958],[11.204947,60.119648],[11.204541,60.119875],[11.204324,60.120083],[11.204363,60.12027],[11.204421,60.120362],[11.204423,60.120409],[11.204368,60.120462],[11.204147,60.12059],[11.203961,60.120813],[11.203792,60.120946],[11.203497,60.120957],[11.203473,60.12079],[11.203276,60.120245],[11.203088,60.119934],[11.203011,60.119749],[11.202514,60.11936],[11.202514,60.11936]]]]},"properties":{"uid":"AK_UL_004","pid":"P_AK_UL_004_01","n":"Rambydalen Massemottak","src":"reguleringsplan (RpOmrade)","a":64580,"firm":0,"pcls":"plan","note":"legal plan envelope - routinely larger than the worked ground"}},{"type":"Feature","geometry":{"type":"MultiPolygon","coordinates":[[[[10.94672,59.641285],[10.945834,59.641543],[10.945328,59.641452],[10.945074,59.641479],[10.944992,59.641488],[10.944296,59.641266],[10.943356,59.641365],[10.942883,59.641494],[10.942841,59.642155],[10.942683,59.642155],[10.943148,59.643519],[10.94313,59.64404],[10.943606,59.644215],[10.943867,59.644293],[10.944044,59.64432],[10.944585,59.644457],[10.945051,59.644559],[10.945222,59.644605],[10.945716,59.644661],[10.948535,59.644666],[10.950019,59.644183],[10.950009,59.643707],[10.949894,59.642873],[10.949884,59.642576],[10.949845,59.641457],[10.951005,59.640586],[10.953023,59.640209],[10.953406,59.640071],[10.953736,59.639802],[10.954183,59.639743],[10.954467,59.639808],[10.954591,59.640074],[10.954749,59.640995],[10.9552,59.641272],[10.955503,59.641472],[10.955595,59.641491],[10.955911,59.641574],[10.95603,59.641559],[10.956193,59.641477],[10.956205,59.641384],[10.956175,59.641275],[10.956228,59.641211],[10.956364,59.641076],[10.956482,59.640951],[10.956612,59.640831],[10.956758,59.640701],[10.956894,59.640585],[10.957028,59.640505],[10.95699,59.640417],[10.956852,59.640371],[10.956708,59.640289],[10.956609,59.640212],[10.956481,59.640122],[10.95639,59.640048],[10.956348,59.640025],[10.95633,59.640004],[10.956324,59.639978],[10.956319,59.639963],[10.956301,59.639924],[10.956286,59.639896],[10.956316,59.639875],[10.95638,59.639833],[10.956435,59.639767],[10.956539,59.639721],[10.956643,59.639682],[10.956675,59.639627],[10.95664,59.639553],[10.956626,59.639501],[10.956652,59.639424],[10.95669,59.639344],[10.956731,59.639275],[10.956767,59.639204],[10.956813,59.639167],[10.956868,59.639112],[10.956949,59.638996],[10.957069,59.638991],[10.957058,59.638954],[10.957081,59.638871],[10.95713,59.6388],[10.95723,59.638696],[10.957274,59.638619],[10.957308,59.638606],[10.957354,59.638582],[10.957364,59.638548],[10.957312,59.638484],[10.957296,59.638434],[10.957272,59.638398],[10.957219,59.638352],[10.957151,59.638319],[10.957123,59.6383],[10.9571,59.638283],[10.957091,59.638276],[10.95708,59.638254],[10.957075,59.638245],[10.957059,59.638235],[10.957048,59.638227],[10.957046,59.638217],[10.957044,59.638211],[10.957048,59.6382],[10.957048,59.638185],[10.957045,59.638166],[10.957044,59.638155],[10.957037,59.638139],[10.957035,59.638131],[10.957037,59.638113],[10.957034,59.638102],[10.957031,59.638088],[10.957024,59.638075],[10.957017,59.638057],[10.957014,59.638041],[10.957014,59.638038],[10.957014,59.638021],[10.957018,59.638001],[10.95702,59.637997],[10.957029,59.63798],[10.957037,59.637966],[10.957046,59.637957],[10.957059,59.637939],[10.957072,59.63792],[10.957076,59.637909],[10.957085,59.637902],[10.957102,59.637887],[10.957122,59.637869],[10.957129,59.637864],[10.957153,59.637852],[10.957162,59.637847],[10.957171,59.637845],[10.95718,59.637841],[10.957188,59.637833],[10.957215,59.637819],[10.957235,59.637806],[10.957257,59.637793],[10.957279,59.63778],[10.957294,59.637767],[10.957312,59.637753],[10.957318,59.637751],[10.95732,59.637737],[10.957322,59.637729],[10.957324,59.637714],[10.957319,59.637695],[10.957315,59.637687],[10.957312,59.637679],[10.957312,59.637669],[10.957307,59.637661],[10.957309,59.637649],[10.957306,59.637634],[10.957304,59.637617],[10.957303,59.637606],[10.957289,59.637588],[10.957287,59.63756],[10.957286,59.637546],[10.957263,59.637511],[10.957253,59.637494],[10.957246,59.637476],[10.957232,59.637451],[10.957223,59.637438],[10.957216,59.637425],[10.957199,59.637401],[10.957194,59.637386],[10.957178,59.637365],[10.957164,59.637343],[10.957164,59.637332],[10.957161,59.637318],[10.957167,59.637296],[10.957171,59.637279],[10.957178,59.637269],[10.957199,59.637238],[10.957213,59.637224],[10.957237,59.637203],[10.957259,59.63719],[10.957272,59.637183],[10.957292,59.637169],[10.957307,59.637161],[10.957332,59.637147],[10.957362,59.637131],[10.957389,59.637118],[10.957407,59.63711],[10.957431,59.637101],[10.957469,59.637087],[10.957491,59.637079],[10.95752,59.63707],[10.957538,59.637065],[10.957558,59.637058],[10.957578,59.637052],[10.957591,59.637049],[10.957607,59.637043],[10.957631,59.637034],[10.95764,59.637019],[10.957649,59.63701],[10.957658,59.637005],[10.957659,59.636991],[10.957662,59.636985],[10.957666,59.636972],[10.957663,59.636959],[10.95766,59.636951],[10.957658,59.636938],[10.957658,59.636938],[10.956832,59.636988],[10.956509,59.637029],[10.955644,59.637208],[10.955123,59.637301],[10.954742,59.637338],[10.955341,59.636433],[10.953676,59.636786],[10.952364,59.637065],[10.950842,59.63739],[10.949831,59.637272],[10.950113,59.638107],[10.950154,59.638247],[10.950482,59.63919],[10.950318,59.639441],[10.94986,59.63981],[10.948321,59.640551],[10.947773,59.640799],[10.94672,59.641285]]]]},"properties":{"uid":"OF_IO_002","pid":"P_OF_IO_002_01","n":"Veidekke Elvestad","src":"cadastral parcel (Matrikkelen Teig)","a":308303,"firm":0,"pcls":"property","note":"a cadastral parcel - a property line, not an operational one"}},{"type":"Feature","geometry":{"type":"MultiPolygon","coordinates":[[[[10.857577,59.927982],[10.857627,59.927971],[10.85768,59.927965],[10.857738,59.927962],[10.857794,59.927965],[10.857854,59.927971],[10.858294,59.927616],[10.858852,59.927166],[10.858726,59.92713],[10.8586,59.927095],[10.858473,59.92706],[10.858346,59.927025],[10.858218,59.926992],[10.858089,59.926959],[10.858007,59.926938],[10.857925,59.926917],[10.857843,59.926897],[10.857075,59.927502],[10.85669,59.927805],[10.857444,59.928042],[10.857464,59.928028],[10.857498,59.92801],[10.857529,59.927997],[10.857577,59.927982]]]]},"properties":{"uid":"OS_OS_001","pid":"P_OS_OS_001_01","n":"Alnabru Massemottak","src":"cadastral parcel (Matrikkelen Teig)","a":7676,"firm":0,"pcls":"property","note":"a cadastral parcel - a property line, not an operational one"}},{"type":"Feature","geometry":{"type":"MultiPolygon","coordinates":[[[[10.858711,59.930305],[10.858713,59.930293],[10.858254,59.929981],[10.854013,59.928646],[10.853646,59.928361],[10.853439,59.928117],[10.853605,59.927932],[10.85315,59.927774],[10.853189,59.927466],[10.853497,59.927274],[10.854014,59.927314],[10.854115,59.927448],[10.854509,59.927139],[10.854902,59.926842],[10.855414,59.926728],[10.85651,59.926869],[10.857037,59.927017],[10.857534,59.92702],[10.858487,59.927169],[10.859605,59.927514],[10.860696,59.927881],[10.861658,59.92834],[10.862112,59.928687],[10.862582,59.928916],[10.862863,59.929317],[10.863042,59.929787],[10.862993,59.930178],[10.862699,59.930442],[10.861966,59.930811],[10.860719,59.931307],[10.859623,59.931547],[10.859129,59.931519],[10.858603,59.93136],[10.858326,59.931113],[10.858282,59.930898],[10.858607,59.930575],[10.858711,59.930305]]]]},"properties":{"uid":"OS_OS_002","pid":"P_OS_OS_002_01","n":"Stubberud (historical)","src":"closed landfill (Grunnforurensning)","a":157780,"firm":0,"pcls":"register","note":"grunnforurensning delineation of a closed site"}},{"type":"Feature","geometry":{"coordinates":[[[[11.182121,60.029394],[11.18169,60.02883],[11.18141,60.028886],[11.181408,60.028912],[11.181308,60.028906],[11.180825,60.028982],[11.180647,60.029019],[11.180351,60.029031],[11.180086,60.029069],[11.179096,60.029637],[11.178539,60.030109],[11.178447,60.030531],[11.178138,60.030601],[11.177871,60.03055],[11.177246,60.030733],[11.176618,60.031196],[11.176166,60.031377],[11.175917,60.03142],[11.176678,60.031672],[11.176833,60.031943],[11.17683,60.031971],[11.176786,60.031984],[11.176543,60.032222],[11.176944,60.032478],[11.176962,60.032572],[11.176945,60.032715],[11.177152,60.032915],[11.177579,60.033071],[11.177648,60.033217],[11.177634,60.033338],[11.177576,60.033473],[11.177084,60.033602],[11.176569,60.033663],[11.176412,60.033676],[11.176545,60.033751],[11.176651,60.033794],[11.176955,60.033874],[11.177271,60.033928],[11.177688,60.033986],[11.177919,60.034078],[11.177938,60.034175],[11.17785,60.034298],[11.178449,60.034135],[11.179106,60.034017],[11.180435,60.033761],[11.181148,60.033687],[11.181786,60.03355],[11.182308,60.033308],[11.182421,60.033109],[11.182776,60.033248],[11.182885,60.033705],[11.182879,60.034174],[11.182754,60.03456],[11.182805,60.034812],[11.182914,60.035131],[11.183053,60.035613],[11.183072,60.035621],[11.183057,60.035629],[11.182994,60.0358],[11.182723,60.035907],[11.1825,60.036102],[11.182186,60.036704],[11.181969,60.037215],[11.18188,60.037363],[11.181424,60.03758],[11.18139,60.037744],[11.181663,60.038622],[11.182113,60.039202],[11.182699,60.039226],[11.18289,60.039433],[11.18293,60.039585],[11.183212,60.039636],[11.183609,60.039555],[11.183861,60.039612],[11.184177,60.039858],[11.184303,60.040013],[11.184535,60.039998],[11.185298,60.039603],[11.185595,60.039396],[11.18565,60.039297],[11.185567,60.039266],[11.185419,60.039183],[11.185199,60.038724],[11.185224,60.038502],[11.185819,60.038332],[11.186424,60.038192],[11.186667,60.037954],[11.186475,60.037496],[11.186255,60.036915],[11.186237,60.036911],[11.186561,60.036629],[11.187007,60.036376],[11.187061,60.036277],[11.186316,60.034897],[11.186189,60.034872],[11.185971,60.034895],[11.185669,60.034886],[11.185668,60.034871],[11.184553,60.034739],[11.18433,60.034682],[11.184307,60.034509],[11.184354,60.034101],[11.18432,60.033769],[11.184253,60.033357],[11.184278,60.03335],[11.183873,60.032996],[11.183615,60.032685],[11.183505,60.032688],[11.182818,60.032339],[11.18249,60.032184],[11.182125,60.032104],[11.181617,60.032068],[11.180984,60.032036],[11.180794,60.032003],[11.180654,60.031902],[11.180634,60.031708],[11.18072,60.031564],[11.180924,60.03148],[11.181262,60.031546],[11.18147,60.031662],[11.181901,60.031772],[11.182523,60.031894],[11.183068,60.031988],[11.182967,60.031811],[11.182531,60.031482],[11.182144,60.031103],[11.182103,60.031099],[11.181875,60.031037],[11.18114,60.030925],[11.180716,60.030885],[11.18052,60.030783],[11.180592,60.030639],[11.180927,60.030497],[11.181222,60.030339],[11.181308,60.030196],[11.181292,60.030092],[11.181104,60.02992],[11.181012,60.029758],[11.181056,60.029621],[11.181218,60.029535],[11.181511,60.029509],[11.181798,60.029545],[11.182124,60.029624],[11.182121,60.029394]]]],"type":"MultiPolygon"},"properties":{"uid":"AK_LI_005","pid":"P_AK_LI_005_02","n":"Asak Massemottak (Nedlagt)","src":"observed footprint","a":269958,"firm":1,"pcls":"observed","note":"N50 Steinbrudd - traces both worked lobes; the parcel is mostly farmland to the west"}},{"type":"Feature","geometry":{"coordinates":[[[[10.472247,59.698132],[10.474116,59.698214],[10.474013,59.697866],[10.473969,59.697666],[10.473961,59.69752],[10.47397,59.697391],[10.474092,59.696951],[10.474052,59.696678],[10.474048,59.696392],[10.473651,59.695491],[10.473468,59.695347],[10.473351,59.695074],[10.472941,59.694645],[10.472826,59.694544],[10.472676,59.694432],[10.472029,59.694317],[10.471611,59.694354],[10.471139,59.696493],[10.470509,59.698041],[10.472247,59.698132]],[[10.47177,59.694787],[10.472154,59.695177],[10.472967,59.696039],[10.471551,59.694633],[10.47177,59.694787]],[[10.4724,59.697507],[10.47234,59.697741],[10.472506,59.697043],[10.4724,59.697507]]]],"type":"MultiPolygon"},"properties":{"uid":"AK_AS_004","pid":"P_AK_AS_004_02","n":"Royken Grovfyllplass","src":"arealformal (permitted use)","a":61153,"firm":1,"pcls":"permitted","note":"arealformal fields A 1 Avfallsdeponi + A 2, plan 062762760006A"}}]}