{"type":"FeatureCollection","features":[{"type":"Feature","properties":{"uid":"SRC_OS_001","n":"Fornebubanen","kind":"line","firm":1,"basis":"alignment","src":"OpenStreetMap contributors (ODbL), data of 2026-10-05","osm_tags":"railway=construction, construction=subway, name=Fornebubanen","osm":"w554052711,w554052775,w554973222,w554973223,w868128285,w969565460,w969565462,w969565463","note":"Both tracks of the metro line as mapped while under construction.","pt":[10.653472,59.917002],"len":14649},"geometry":{"type":"MultiLineString","coordinates":[[[10.708922,59.933339],[10.708362,59.933377],[10.706416,59.933437],[10.705344,59.933433],[10.704796,59.933393],[10.704157,59.933308],[10.70364,59.933207],[10.703124,59.933073],[10.702402,59.932817],[10.701698,59.93246],[10.701258,59.932149],[10.70035,59.931355],[10.699849,59.930973],[10.699109,59.930524],[10.698278,59.930129],[10.697575,59.929859],[10.696756,59.929603],[10.691817,59.928234],[10.690805,59.927976],[10.689506,59.927722],[10.688191,59.92755],[10.68722,59.927474],[10.684391,59.92733],[10.683053,59.927195],[10.682195,59.927065],[10.681402,59.926913],[10.679996,59.926556],[10.678853,59.92617],[10.677753,59.925692],[10.673319,59.923224],[10.672802,59.922969],[10.672258,59.922751],[10.671663,59.92256],[10.670999,59.922394],[10.666473,59.921565],[10.665585,59.921364],[10.664765,59.921135],[10.663853,59.920827],[10.66136,59.9199],[10.659281,59.919177],[10.65336,59.91696],[10.65253,59.916681],[10.651737,59.916456],[10.650977,59.916276],[10.650202,59.916126],[10.64939,59.916],[10.648589,59.915907],[10.647373,59.915819],[10.642252,59.915584],[10.640855,59.915453],[10.639447,59.915251],[10.637819,59.914922],[10.633621,59.913883],[10.632413,59.9135],[10.631404,59.913078],[10.63072,59.912718],[10.630138,59.91232],[10.62968,59.911899],[10.629304,59.911398],[10.627806,59.908],[10.627076,59.906533],[10.625796,59.903565],[10.625616,59.903065],[10.625512,59.902479],[10.625528,59.901858],[10.625768,59.900551],[10.625846,59.899659],[10.626174,59.897939],[10.626619,59.896617],[10.626617,59.896123],[10.626511,59.895779],[10.626283,59.895386],[10.625951,59.895014],[10.625111,59.894194],[10.624451,59.893674],[10.623298,59.892537]],[[10.623497,59.892448],[10.626288,59.895279],[10.626534,59.89566],[10.626685,59.896097],[10.626713,59.896459],[10.626667,59.896804],[10.626115,59.89967],[10.625852,59.900554],[10.625603,59.90186],[10.625604,59.902635],[10.625781,59.903341],[10.626009,59.903833],[10.626532,59.904687],[10.626726,59.905074],[10.627372,59.906575],[10.627934,59.90811],[10.629376,59.911388],[10.629681,59.911809],[10.630147,59.912257],[10.630634,59.912606],[10.631299,59.912971],[10.632157,59.913323],[10.63303,59.913585],[10.638739,59.914997],[10.640204,59.915301],[10.641184,59.915444],[10.642267,59.915547],[10.647384,59.915782],[10.648692,59.915879],[10.649614,59.915992],[10.650714,59.916173],[10.651544,59.916342],[10.652525,59.916581],[10.65349,59.916864],[10.654396,59.917176],[10.65943,59.919064],[10.661884,59.920045],[10.663907,59.920801],[10.66479,59.921098],[10.66565,59.921338],[10.66658,59.921546],[10.671413,59.922424],[10.672016,59.922571],[10.672643,59.92277],[10.673146,59.922972],[10.673625,59.923207],[10.677384,59.925319],[10.678087,59.925688],[10.679137,59.926142],[10.680208,59.926509],[10.681599,59.92687],[10.682412,59.92703],[10.683214,59.927155],[10.684561,59.927297],[10.687229,59.927437],[10.688375,59.927531],[10.68982,59.927735],[10.691193,59.928027],[10.699445,59.930303],[10.700753,59.930692],[10.701597,59.931001],[10.702384,59.931347],[10.705156,59.932798],[10.705869,59.933028],[10.706664,59.933162]]]}},{"type":"Feature","properties":{"uid":"SRC_HIS_001","n":"Follobanen (Prosjekt)","kind":"line","firm":1,"basis":"alignment","src":"OpenStreetMap contributors (ODbL), data of 2026-10-05","osm_tags":"railway=rail, name=Follobanen","osm":"w134164248,w167368666,w197718797,w200495177,w203517925,w233263912,w233263913,w233263914,w233263916,w233263917,w233263919,w234995182,w234995183,w275597024,w308394983,w308394984,w310538802,w310538803,w438005984,w438005985,w823588021,w823588022,w823588023,w837467399,w839339732,w839339734,w839339735,w839339736,w844864582,w844864583,w972697243,w1084596286,w1084596288,w1120559844,w1120559849,w1120559850,w1120559851,w1120559853,w1120559854,w1124295791,w1124295792,w1124295793,w1124295796,w1124295797,w1124295798,w1124295800,w1197491651","note":"The line as built, both tunnel tubes (FB1, FB2) and the approaches at Oslo S and Ski.","pt":[10.828318,59.821779],"len":46437},"geometry":{"type":"MultiLineString","coordinates":[[[10.763455,59.908479],[10.764217,59.908338],[10.764676,59.908214],[10.765151,59.90803],[10.765563,59.907809],[10.765886,59.907561],[10.766069,59.907367],[10.766234,59.907096],[10.766319,59.906728],[10.766277,59.906426],[10.766166,59.906179],[10.76513,59.904808],[10.764537,59.903812],[10.76341,59.901359],[10.763069,59.900392],[10.762958,59.899456],[10.762963,59.89916],[10.763083,59.898429],[10.763419,59.897549],[10.763571,59.897261],[10.764018,59.896592],[10.764541,59.895992],[10.765514,59.895119],[10.779463,59.884891],[10.781232,59.883491],[10.782618,59.882297],[10.7833,59.881675],[10.784764,59.880229],[10.801424,59.863301],[10.803816,59.860771],[10.805939,59.858448],[10.808341,59.855644],[10.810471,59.853079],[10.812522,59.8505],[10.813601,59.849081],[10.814745,59.847556],[10.816693,59.844807],[10.818313,59.842398],[10.819641,59.840341],[10.820908,59.838289],[10.822122,59.836231],[10.82421,59.832447],[10.824856,59.831135],[10.825354,59.830002],[10.826005,59.828296],[10.848148,59.765895],[10.848875,59.763579],[10.849195,59.762224],[10.849432,59.760875],[10.849612,59.759268],[10.849668,59.758158],[10.84961,59.755909],[10.849467,59.754509],[10.849211,59.75302],[10.848824,59.751384],[10.848621,59.750705],[10.843978,59.737328],[10.843084,59.734915],[10.842452,59.733521],[10.84147,59.731713],[10.840781,59.730601],[10.839152,59.728192]],[[10.8385,59.72705],[10.841654,59.731689],[10.842531,59.733058],[10.843015,59.733903],[10.843482,59.734853],[10.844159,59.736575],[10.849075,59.750649],[10.849549,59.752173],[10.849908,59.753688],[10.850231,59.755881],[10.850315,59.757332],[10.850319,59.758167],[10.850207,59.760063],[10.849853,59.762266],[10.849518,59.763627],[10.849082,59.765017],[10.829802,59.819421],[10.828008,59.824426],[10.827467,59.825791],[10.826795,59.827311],[10.826236,59.828428],[10.825394,59.830008],[10.824741,59.831122],[10.823934,59.83241],[10.821462,59.836125],[10.819562,59.839242],[10.817832,59.84199],[10.815425,59.845549],[10.81406,59.847462],[10.811892,59.850376],[10.809853,59.852949],[10.807718,59.855533],[10.805331,59.858311],[10.804027,59.859773],[10.801746,59.862227],[10.797973,59.866087],[10.784193,59.880102],[10.782068,59.882155],[10.780693,59.88334],[10.778894,59.884748],[10.765275,59.894732],[10.764643,59.895262],[10.763837,59.896105],[10.763251,59.896971],[10.762998,59.897499],[10.762835,59.897959],[10.76272,59.898426],[10.762672,59.898867],[10.762729,59.899786],[10.762878,59.9004],[10.763147,59.901087],[10.764406,59.903828],[10.764853,59.904609],[10.765192,59.905108]],[[10.833182,59.715561],[10.8339,59.718413],[10.834123,59.719087],[10.835633,59.722482],[10.836076,59.723363],[10.83648,59.724048],[10.8385,59.72705],[10.839152,59.728192],[10.83668,59.724544],[10.836178,59.723727],[10.835771,59.722966],[10.834363,59.719876],[10.834041,59.719093],[10.833707,59.718005],[10.833099,59.715567],[10.833184,59.716044],[10.833291,59.717472],[10.833588,59.718645],[10.833882,59.719353],[10.834153,59.719876],[10.83481,59.72091],[10.835007,59.721295]],[[10.761519,59.90866],[10.763319,59.908445],[10.764068,59.908277],[10.764486,59.908134],[10.764836,59.907975],[10.765249,59.907723],[10.765485,59.907522],[10.76568,59.907291],[10.765806,59.907059],[10.765877,59.906803],[10.765878,59.906556],[10.765778,59.90624],[10.765192,59.905108],[10.765833,59.906025],[10.766022,59.906451],[10.76611,59.906993],[10.766008,59.907614],[10.76592,59.907812],[10.765745,59.908055],[10.765277,59.908449],[10.764726,59.908707],[10.763871,59.90897]],[[10.834963,59.720743],[10.835422,59.722017]]]}},{"type":"Feature","properties":{"uid":"SRC_VI_001","n":"E18 Vestkorridoren","kind":"line","firm":1,"basis":"alignment","src":"OpenStreetMap contributors (ODbL), data of 2026-10-05","osm_tags":"highway=construction, construction=motorway (E 18, Høviktunnelen, Stabekklokket)","osm":"w971153020,w971153021,w971153042,w971153045,w971153046,w971153050,w971153051,w971153052,w971189467,w971189468,w1319560700,w1319560701,w1329809977,w1329809978,w1329809979,w1329809980","note":"Main carriageways of the new E18 between Lysaker and Ramstadsletta as mapped under construction. Side roads, ramps and the bus road of the same project are not drawn.","pt":[10.592188,59.90299],"len":7997},"geometry":{"type":"MultiLineString","coordinates":[[[10.557378,59.895525],[10.562748,59.896495],[10.563618,59.896724],[10.565091,59.897191],[10.565736,59.897345],[10.571899,59.898411],[10.573504,59.898754],[10.575052,59.899197],[10.57794,59.900258],[10.579591,59.900793],[10.581001,59.901181],[10.58287,59.901609],[10.584294,59.901875],[10.585488,59.902062],[10.597494,59.903725],[10.600444,59.904157],[10.610603,59.905746],[10.612387,59.906049],[10.614638,59.906499],[10.618345,59.907358],[10.625889,59.909232],[10.627712,59.909747]],[[10.627633,59.909819],[10.62693,59.909607],[10.625827,59.909315],[10.619885,59.907859],[10.614542,59.906606],[10.61323,59.906324],[10.61156,59.906009],[10.602946,59.904678],[10.584845,59.902164],[10.583876,59.902015],[10.582728,59.901807],[10.580855,59.901384],[10.579374,59.900968],[10.578253,59.900599],[10.574763,59.899347],[10.573706,59.899012],[10.572762,59.898757],[10.571649,59.898512],[10.570887,59.89837],[10.565587,59.89746]]]}},{"type":"Feature","properties":{"uid":"SRC_VI_003","n":"E134 Oslofjordforbindelsen (Trinn 2)","kind":"line","firm":1,"basis":"alignment","src":"OpenStreetMap contributors (ODbL), data of 2026-10-05","osm_tags":"highway=proposed, proposed=trunk (incl. name=Oslofjordtunnelen)","osm":"w903610952,w903610953,w903610954,w903610956,w903610957,w903610975,w903610977,w903610978,w903610980,w903610982,w903610983,w903610984,w905920628,w905953787,w1353618078,w1353618079,w1353618080,w1353618081,w1353618090,w1353618102","note":"Planned second carriageway and tunnel tubes as mapped in OpenStreetMap from the plans; not yet built.","pt":[10.631821,59.675175],"len":13849},"geometry":{"type":"MultiLineString","coordinates":[[[10.55643,59.664831],[10.56014,59.664912],[10.560762,59.664908],[10.561901,59.66485],[10.563024,59.664714],[10.564023,59.664526],[10.564865,59.664309],[10.565647,59.664051],[10.56606,59.66389],[10.566893,59.663502],[10.571327,59.661219],[10.572746,59.660519],[10.575834,59.659068],[10.584513,59.654694],[10.58613,59.653974],[10.586939,59.653675],[10.587752,59.653419],[10.588522,59.653208],[10.589313,59.65302],[10.590814,59.652739],[10.592585,59.652517],[10.593539,59.652448],[10.594352,59.652419],[10.595273,59.652405],[10.596239,59.652425],[10.597164,59.652473],[10.598152,59.652558],[10.599223,59.652694],[10.600225,59.652857],[10.601388,59.653094],[10.602255,59.653315],[10.603152,59.653586],[10.604567,59.654107],[10.60538,59.654473],[10.606124,59.654852],[10.606832,59.655263],[10.60738,59.655639],[10.607869,59.656025],[10.608422,59.65652],[10.608818,59.65697],[10.609225,59.657511],[10.609557,59.658077],[10.609826,59.658644],[10.610593,59.66056],[10.610818,59.661012],[10.611392,59.661904],[10.611928,59.662571],[10.612547,59.663226],[10.613256,59.663868],[10.614004,59.664455],[10.615198,59.665258],[10.616464,59.665973],[10.618104,59.666747],[10.620927,59.66788],[10.622147,59.668433],[10.623488,59.669144],[10.624731,59.669926],[10.644107,59.684271],[10.645242,59.685078],[10.646815,59.686121],[10.648854,59.687356],[10.654629,59.690529],[10.655516,59.691054],[10.656129,59.691464],[10.657473,59.692513],[10.666823,59.700134],[10.668043,59.701047],[10.669246,59.7018],[10.670247,59.702336],[10.671089,59.702737],[10.672027,59.703135],[10.673363,59.703639],[10.681494,59.706475],[10.682711,59.706876],[10.686575,59.708075],[10.69021,59.709377],[10.691661,59.709869],[10.693584,59.710429],[10.694552,59.710679],[10.696354,59.711078],[10.698013,59.711373],[10.700033,59.711664],[10.701914,59.711866],[10.703579,59.711988],[10.704953,59.712052],[10.707509,59.712102]],[[10.664254,59.69833],[10.656758,59.692232],[10.656175,59.691801],[10.655212,59.691173]],[[10.568503,59.662891],[10.566693,59.663773],[10.565987,59.664072],[10.564951,59.664414],[10.564052,59.664636],[10.563553,59.664734],[10.562434,59.664896],[10.561225,59.664989],[10.560001,59.665013],[10.557424,59.665019]]]}},{"type":"Feature","properties":{"uid":"SRC_VI_002","n":"Ringeriksbanen / E16","kind":"line","firm":1,"basis":"alignment","src":"OpenStreetMap contributors (ODbL), data of 2026-10-05","osm_tags":"railway=proposed, name=Ringeriksbanen","osm":"w630682516,w630682518,w630682520,w630682521,w630682523,w630682525,w630682535,w630682561,w630682563,w631371832,w631371833,w631371834,w631371835,w631371836,w631371838,w631371840,w631371841,w631371842,w631371843,w631371846,w631371847,w631371848,w631371849,w631371850,w631371851,w631371852,w631371853,w631371854,w631371855,w631371856,w631371857,w631641862,w631641863,w631641864,w631641865,w631641866,w631641867,w631641869,w631641870,w631954752,w631954758,w631954763,w631954777,w631954784,w631954788,w631954793,w631954799,w631954807,w816685511,w816685512,w816685513,w816685514","note":"Planned railway Sandvika-Hønefoss as mapped in OpenStreetMap from the plans; the E16 part is not drawn.","pt":[10.34694,60.012488],"len":76318},"geometry":{"type":"MultiLineString","coordinates":[[[10.216855,60.151021],[10.216032,60.148867],[10.215607,60.147419],[10.215304,60.145865],[10.215157,60.144069],[10.215205,60.135375],[10.215266,60.133787],[10.215431,60.132053],[10.215588,60.130958],[10.215906,60.129263],[10.216278,60.127718],[10.217028,60.125304],[10.217974,60.122909],[10.219259,60.120261],[10.220605,60.117925],[10.222035,60.11577],[10.223397,60.11394],[10.224618,60.112426],[10.229081,60.107078],[10.230875,60.105164],[10.232637,60.103483],[10.234655,60.101747],[10.236758,60.100105],[10.238125,60.099114],[10.262009,60.082268],[10.264134,60.080821],[10.266001,60.07967],[10.267983,60.078555],[10.270022,60.077509],[10.271671,60.076727],[10.27353,60.07591],[10.275676,60.07504],[10.282494,60.072509],[10.285036,60.071483],[10.286954,60.070631],[10.288659,60.06981],[10.289906,60.069167],[10.291747,60.068144],[10.293418,60.067129],[10.295496,60.065747],[10.311026,60.05511],[10.312096,60.054324],[10.313331,60.05335],[10.314723,60.052142],[10.31563,60.051285],[10.316925,60.049934],[10.318558,60.047982],[10.361783,59.993926],[10.363299,59.991978],[10.365105,59.989471],[10.395167,59.946059],[10.396973,59.943617],[10.398674,59.941496],[10.40093,59.938898],[10.4037,59.935981],[10.448606,59.891657],[10.449413,59.890924],[10.450126,59.890351],[10.450877,59.889808],[10.451957,59.889115],[10.453231,59.888405],[10.45413,59.887959],[10.455194,59.887482],[10.45665,59.886906],[10.457767,59.886516],[10.459041,59.886119],[10.46072,59.885668],[10.462051,59.885363],[10.463623,59.885058],[10.465085,59.884825],[10.466407,59.884651],[10.468235,59.884468],[10.470075,59.884353],[10.471285,59.884312],[10.472446,59.884298],[10.474143,59.884324],[10.475896,59.884406],[10.477152,59.884503],[10.478386,59.884627],[10.47979,59.884806],[10.48109,59.885009],[10.482336,59.885238],[10.484126,59.885632],[10.485776,59.886067],[10.48828,59.88682],[10.489842,59.88725],[10.492233,59.887801],[10.494284,59.888231]],[[10.494074,59.888233],[10.492682,59.887971],[10.48051,59.885853],[10.478948,59.88561],[10.477442,59.885423],[10.476234,59.885306],[10.475071,59.885221],[10.473879,59.88516],[10.472121,59.88512],[10.471033,59.885123],[10.469387,59.88517],[10.467003,59.885332],[10.465158,59.885534],[10.463851,59.885719],[10.462405,59.885966],[10.461143,59.886222],[10.45993,59.886501],[10.458247,59.886956],[10.456731,59.887437],[10.455723,59.887799],[10.454646,59.888224],[10.453279,59.888835],[10.452092,59.889438],[10.451244,59.889922],[10.450427,59.890437],[10.449379,59.891181],[10.448442,59.891949],[10.447871,59.892479],[10.403775,59.936],[10.401006,59.938915],[10.398752,59.941512],[10.397052,59.943632],[10.395247,59.946073],[10.365184,59.989485],[10.363378,59.991993],[10.362362,59.993314],[10.318636,60.047998],[10.317002,60.049951],[10.315705,60.051304],[10.314797,60.052163],[10.313403,60.053372],[10.312167,60.054347],[10.311095,60.055134],[10.295564,60.065772],[10.293485,60.067155],[10.291812,60.068172],[10.289968,60.069196],[10.288719,60.06984],[10.287012,60.070663],[10.285091,60.071516],[10.282546,60.072543],[10.275728,60.075074],[10.273585,60.075943],[10.271729,60.076758],[10.270082,60.077539],[10.268045,60.078583],[10.266064,60.079698],[10.264201,60.080847],[10.262078,60.082292],[10.238209,60.099128],[10.236829,60.100129],[10.234728,60.101769],[10.232712,60.103503],[10.230952,60.105182],[10.229422,60.106798],[10.228348,60.108044],[10.224028,60.113253],[10.222566,60.115156],[10.221183,60.117163],[10.219771,60.119494],[10.21842,60.122123],[10.21741,60.124512],[10.216594,60.12692],[10.216175,60.12848],[10.215766,60.130406],[10.215518,60.132055],[10.215397,60.133222],[10.215292,60.135375],[10.215234,60.143319],[10.215332,60.145154],[10.215563,60.146513],[10.21602,60.148146],[10.216829,60.150257]],[[10.236926,60.168099],[10.225918,60.164411],[10.225367,60.164199],[10.224666,60.163883],[10.223845,60.163413],[10.223316,60.163021],[10.223049,60.162782],[10.222669,60.162374],[10.22239,60.161976],[10.219806,60.157321],[10.21872,60.155489],[10.21818,60.154372],[10.216855,60.151021],[10.217559,60.15246],[10.218459,60.154721],[10.218763,60.155282],[10.219108,60.155753],[10.219819,60.156499],[10.220448,60.157004],[10.221361,60.157599],[10.222992,60.158481]],[[10.217559,60.15246],[10.217254,60.151669],[10.216829,60.150257],[10.21859,60.154716],[10.219349,60.156322],[10.222363,60.161794],[10.222869,60.162496],[10.223561,60.163138],[10.223922,60.163395],[10.224525,60.16375],[10.225138,60.164047],[10.22597,60.164376],[10.236973,60.168064]],[[10.439252,59.900898],[10.440075,59.899967],[10.441956,59.898109],[10.442968,59.897225]],[[10.442875,59.897199],[10.441956,59.898109]],[[10.439155,59.900875],[10.440075,59.899967]]]}},{"type":"Feature","properties":{"uid":"SRC_OS_002","n":"Ny vannforsyning Oslo (NVO)","kind":"perimeter","firm":1,"basis":"construction sites","src":"OpenStreetMap contributors (ODbL), data of 2026-10-05","osm_tags":"landuse=construction, name as in OSM","osm":"w852792203,w1434443896","note":"Two surface construction sites of the project as mapped in OpenStreetMap and seen on the aerial. The tunnels themselves are not mapped and are not drawn.","pt":[10.652403,59.944633],"a":28581},"geometry":{"type":"MultiPolygon","coordinates":[[[[10.653752,59.94455],[10.654082,59.945125],[10.653927,59.945114],[10.653055,59.945167],[10.65214,59.945253],[10.651456,59.945445],[10.651205,59.945468],[10.651149,59.945317],[10.651196,59.945095],[10.651119,59.944286],[10.651329,59.943927],[10.651362,59.943896],[10.653579,59.944036],[10.653752,59.94455]]],[[[10.737221,59.951875],[10.738042,59.951964],[10.738253,59.952013],[10.738921,59.952034],[10.738925,59.951952],[10.739448,59.951892],[10.739489,59.951792],[10.738837,59.951642],[10.738828,59.951472],[10.73892,59.951448],[10.738892,59.95141],[10.738873,59.951311],[10.738013,59.951274],[10.737655,59.95125],[10.737337,59.951209],[10.73721,59.951362],[10.737221,59.951875]]]]}},{"type":"Feature","properties":{"uid":"SRC_OS_012","n":"Nye Aker Sykehus","kind":"perimeter","firm":1,"basis":"construction site","src":"OpenStreetMap contributors (ODbL), data of 2026-10-05","osm_tags":"landuse=construction, name as in OSM","osm":"w1457275070","note":"Construction site as mapped in OpenStreetMap (landuse=construction).","pt":[10.790254,59.937071],"a":82236},"geometry":{"type":"MultiPolygon","coordinates":[[[[10.792098,59.93678],[10.793243,59.936289],[10.792974,59.936076],[10.791991,59.935419],[10.791588,59.935192],[10.791445,59.935154],[10.791322,59.935151],[10.791134,59.935191],[10.790506,59.935444],[10.790368,59.93554],[10.789401,59.935928],[10.78889,59.936266],[10.788593,59.9364],[10.78764,59.936798],[10.787659,59.936982],[10.788027,59.937294],[10.78738,59.937487],[10.787241,59.937407],[10.786977,59.9375],[10.787017,59.937554],[10.786643,59.937749],[10.78694,59.938003],[10.78732,59.93804],[10.787338,59.938195],[10.787948,59.938386],[10.78883,59.938736],[10.790401,59.938056],[10.79107,59.938455],[10.793149,59.937935],[10.792697,59.937494],[10.792756,59.937431],[10.792098,59.93678]]]]}},{"type":"Feature","properties":{"uid":"SRC_OS_015","n":"Construction City","kind":"perimeter","firm":1,"basis":"building","src":"OpenStreetMap contributors (ODbL), data of 2026-10-05","osm_tags":"building=office, name as in OSM","osm":"w1333507389","note":"Building outline.","pt":[10.810035,59.923846],"a":9860},"geometry":{"type":"MultiPolygon","coordinates":[[[[10.808582,59.924372],[10.808445,59.924178],[10.809414,59.924069],[10.809431,59.924003],[10.808483,59.923942],[10.808536,59.92374],[10.809003,59.923769],[10.809208,59.923672],[10.809062,59.923347],[10.809498,59.923326],[10.809733,59.923837],[10.810418,59.923761],[10.810242,59.923363],[10.810696,59.923386],[10.810772,59.923554],[10.810896,59.92356],[10.811338,59.923419],[10.811536,59.923429],[10.811607,59.923594],[10.810833,59.923845],[10.810906,59.923902],[10.811694,59.923814],[10.811778,59.924005],[10.810645,59.924135],[10.810583,59.923993],[10.8098,59.924082],[10.809815,59.924115],[10.809802,59.924117],[10.80985,59.924229],[10.808582,59.924372]]]]}},{"type":"Feature","properties":{"uid":"SRC_HIS_004","n":"Munchmuseet (Munch)","kind":"perimeter","firm":1,"basis":"building","src":"OpenStreetMap contributors (ODbL), data of 2026-10-05","osm_tags":"building=civic, name as in OSM","osm":"w545260792","note":"Building outline.","pt":[10.75523,59.905725],"a":4211},"geometry":{"type":"MultiPolygon","coordinates":[[[[10.755951,59.905971],[10.755285,59.90527],[10.754558,59.905442],[10.755096,59.906178],[10.755951,59.905971]]]]}},{"type":"Feature","properties":{"uid":"SRC_OS_003","n":"Livsvitenskapsbygget","kind":"perimeter","firm":1,"basis":"building","src":"OpenStreetMap contributors (ODbL), data of 2026-10-05","osm_tags":"building=university, name as in OSM","osm":"w1055397248","note":"Building outline.","pt":[10.720345,59.945433],"a":19527},"geometry":{"type":"MultiPolygon","coordinates":[[[[10.721273,59.946239],[10.722504,59.945784],[10.721825,59.945324],[10.721609,59.945404],[10.721333,59.945217],[10.721166,59.945278],[10.720841,59.945058],[10.720666,59.945123],[10.720329,59.944894],[10.720178,59.94495],[10.719884,59.944751],[10.719722,59.944811],[10.719419,59.944606],[10.718146,59.945078],[10.718648,59.945417],[10.718813,59.945356],[10.719108,59.945556],[10.719255,59.945502],[10.719573,59.945717],[10.719777,59.945641],[10.720111,59.945867],[10.720224,59.945826],[10.720572,59.946061],[10.720695,59.946015],[10.720964,59.946198],[10.721125,59.946139],[10.721273,59.946239]]]]}},{"type":"Feature","properties":{"uid":"SRC_OS_013","n":"Bjørvika Skole","kind":"perimeter","firm":1,"basis":"building","src":"OpenStreetMap contributors (ODbL), data of 2026-10-05","osm_tags":"building=construction, name as in OSM","osm":"w1561095447","note":"Building outline as mapped while under construction (building=construction).","pt":[10.755712,59.903059],"a":6399},"geometry":{"type":"MultiPolygon","coordinates":[[[[10.755712,59.903059],[10.756454,59.902668],[10.75683,59.902825],[10.756661,59.903045],[10.756756,59.903172],[10.757017,59.903298],[10.757305,59.903357],[10.757418,59.903079],[10.757491,59.902996],[10.757969,59.903087],[10.757853,59.903263],[10.757819,59.903392],[10.757898,59.9036],[10.757336,59.903783],[10.755712,59.903059]]]]}}]}